<?xml version="1.0"?>
<gpx xmlns="http://www.topografix.com/GPX/1/1" xmlns:xsi="http://www.w3.org/2001/XMLSchema-instance" xmlns:wptx1="http://www.garmin.com/xmlschemas/WaypointExtension/v1" xmlns:gpxtrx="http://www.garmin.com/xmlschemas/GpxExtensions/v3" xmlns:gpxtpx="http://www.garmin.com/xmlschemas/TrackPointExtension/v1" xmlns:gpxx="http://www.garmin.com/xmlschemas/GpxExtensions/v3" xmlns:trp="http://www.garmin.com/xmlschemas/TripExtensions/v1" xmlns:adv="http://www.garmin.com/xmlschemas/AdventuresExtensions/v1" xmlns:prs="http://www.garmin.com/xmlschemas/PressureExtension/v1" xmlns:tmd="http://www.garmin.com/xmlschemas/TripMetaDataExtensions/v1" xmlns:vptm="http://www.garmin.com/xmlschemas/ViaPointTransportationModeExtensions/v1" xmlns:ctx="http://www.garmin.com/xmlschemas/CreationTimeExtension/v1" creator="Garmin Desktop App" version="1.1" xsi:schemaLocation="http://www.topografix.com/GPX/1/1 http://www.topografix.com/GPX/1/1/gpx.xsd http://www.garmin.com/xmlschemas/WaypointExtension/v1 http://www8.garmin.com/xmlschemas/WaypointExtensionv1.xsd http://www.garmin.com/xmlschemas/TrackPointExtension/v1 http://www.garmin.com/xmlschemas/TrackPointExtensionv1.xsd http://www.garmin.com/xmlschemas/GpxExtensions/v3 http://www8.garmin.com/xmlschemas/GpxExtensionsv3.xsd http://www.garmin.com/xmlschemas/ActivityExtension/v1 http://www8.garmin.com/xmlschemas/ActivityExtensionv1.xsd http://www.garmin.com/xmlschemas/AdventuresExtensions/v1 http://www8.garmin.com/xmlschemas/AdventuresExtensionv1.xsd http://www.garmin.com/xmlschemas/PressureExtension/v1 http://www.garmin.com/xmlschemas/PressureExtensionv1.xsd http://www.garmin.com/xmlschemas/TripExtensions/v1 http://www.garmin.com/xmlschemas/TripExtensionsv1.xsd http://www.garmin.com/xmlschemas/TripMetaDataExtensions/v1 http://www.garmin.com/xmlschemas/TripMetaDataExtensionsv1.xsd http://www.garmin.com/xmlschemas/ViaPointTransportationModeExtensions/v1 http://www.garmin.com/xmlschemas/ViaPointTransportationModeExtensionsv1.xsd http://www.garmin.com/xmlschemas/CreationTimeExtensions/v1 http://www.garmin.com/xmlschemas/CreationTimeExtensionsv1.xsd">

  <metadata>
    <link href="http://www.garmin.com">
      <text>Garmin International</text>
    </link>
    <time>2015-01-21T11:37:43Z</time>
    <bounds maxlat="68.037248225882649" maxlon="13.079341314733028" minlat="67.992085106670856" minlon="12.997540477663279"/>
  </metadata>

  <trk>
    <name>GT_Moskenesoya _Etape9(1)</name>
    <extensions>
      <gpxx:TrackExtension>
        <gpxx:DisplayColor>DarkGray</gpxx:DisplayColor>
      </gpxx:TrackExtension>
    </extensions>
    <trkseg>
      <trkpt lat="68.035806370899081" lon="13.079341314733028">
        <ele>17.7734375</ele>
      </trkpt>
      <trkpt lat="68.035600427538157" lon="13.077870542183518">
        <ele>17.41015625</ele>
      </trkpt>
      <trkpt lat="68.035584250465035" lon="13.076077317818999">
        <ele>18.6796875</ele>
      </trkpt>
      <trkpt lat="68.035664800554514" lon="13.075047349557281">
        <ele>19.6640625</ele>
      </trkpt>
      <trkpt lat="68.036161763593554" lon="13.073185309767723">
        <ele>25.4453125</ele>
      </trkpt>
      <trkpt lat="68.036248432472348" lon="13.071306254714727">
        <ele>24.87109375</ele>
      </trkpt>
      <trkpt lat="68.036314062774181" lon="13.070816332474351">
        <ele>25.453125</ele>
      </trkpt>
      <trkpt lat="68.03632814437151" lon="13.070305036380887">
        <ele>24.0703125</ele>
      </trkpt>
      <trkpt lat="68.036434007808566" lon="13.06977060623467">
        <ele>25.5078125</ele>
      </trkpt>
      <trkpt lat="68.036464853212237" lon="13.069047164171934">
        <ele>24.3671875</ele>
      </trkpt>
      <trkpt lat="68.036872465163469" lon="13.067054534330964">
        <ele>25.96484375</ele>
      </trkpt>
      <trkpt lat="68.036921918392181" lon="13.066321117803454">
        <ele>25.3828125</ele>
      </trkpt>
      <trkpt lat="68.03689006716013" lon="13.065497847273946">
        <ele>21.8515625</ele>
      </trkpt>
      <trkpt lat="68.036950333043933" lon="13.064978420734406">
        <ele>21.35546875</ele>
      </trkpt>
      <trkpt lat="68.036900460720062" lon="13.063483675941825">
        <ele>15.875</ele>
      </trkpt>
      <trkpt lat="68.036931473761797" lon="13.062662249431014">
        <ele>13.8046875</ele>
      </trkpt>
      <trkpt lat="68.03704789839685" lon="13.061294574290514">
        <ele>10.984375</ele>
      </trkpt>
      <trkpt lat="68.037070026621222" lon="13.059874679893255">
        <ele>8.81640625</ele>
      </trkpt>
      <trkpt lat="68.037248225882649" lon="13.059189040213823">
        <ele>9.9453125</ele>
      </trkpt>
      <trkpt lat="68.037134483456612" lon="13.058448163792491">
        <ele>7.53125</ele>
      </trkpt>
      <trkpt lat="68.036981681361794" lon="13.058077516034245">
        <ele>5.109375</ele>
      </trkpt>
      <trkpt lat="68.036901215091348" lon="13.056784942746162">
        <ele>4.19921875</ele>
      </trkpt>
      <trkpt lat="68.036936586722732" lon="13.056364422664046">
        <ele>4.71875</ele>
      </trkpt>
      <trkpt lat="68.036739025264978" lon="13.055862095206976">
        <ele>4.12109375</ele>
      </trkpt>
      <trkpt lat="68.03669661283493" lon="13.05540737695992">
        <ele>4.6328125</ele>
      </trkpt>
      <trkpt lat="68.036580858752131" lon="13.055176958441734">
        <ele>4.01953125</ele>
      </trkpt>
      <trkpt lat="68.03649821318686" lon="13.054668260738254">
        <ele>3.8515625</ele>
      </trkpt>
      <trkpt lat="68.036490082740784" lon="13.053015600889921">
        <ele>5.30859375</ele>
      </trkpt>
      <trkpt lat="68.036439958959818" lon="13.05293831974268">
        <ele>5.046875</ele>
      </trkpt>
      <trkpt lat="68.036421099677682" lon="13.052328117191792">
        <ele>6.546875</ele>
      </trkpt>
      <trkpt lat="68.036347255110741" lon="13.051926456391811">
        <ele>6.8984375</ele>
      </trkpt>
      <trkpt lat="68.036388996988535" lon="13.051862502470613">
        <ele>7.6640625</ele>
      </trkpt>
      <trkpt lat="68.03638874553144" lon="13.051921678707004">
        <ele>7.35546875</ele>
      </trkpt>
      <trkpt lat="68.036398719996214" lon="13.051531165838242">
        <ele>9.47265625</ele>
      </trkpt>
      <trkpt lat="68.036305010318756" lon="13.051059851422906">
        <ele>12.06640625</ele>
      </trkpt>
      <trkpt lat="68.036266705021262" lon="13.051132690161467">
        <ele>11.4140625</ele>
      </trkpt>
      <trkpt lat="68.036094373092055" lon="13.051151297986507">
        <ele>10.72265625</ele>
      </trkpt>
      <trkpt lat="68.035996221005917" lon="13.050797749310732">
        <ele>13.859375</ele>
      </trkpt>
      <trkpt lat="68.035957748070359" lon="13.050754079595208">
        <ele>14.3125</ele>
      </trkpt>
      <trkpt lat="68.035820284858346" lon="13.050761539489031">
        <ele>14.21875</ele>
      </trkpt>
      <trkpt lat="68.035693131387234" lon="13.050869246944785">
        <ele>12.85546875</ele>
      </trkpt>
      <trkpt lat="68.035551309585571" lon="13.051169151440263">
        <ele>9.4921875</ele>
      </trkpt>
      <trkpt lat="68.035433627665043" lon="13.051277026534081">
        <ele>8.328125</ele>
      </trkpt>
      <trkpt lat="68.035322315990925" lon="13.051267387345433">
        <ele>8.4296875</ele>
      </trkpt>
      <trkpt lat="68.035150403156877" lon="13.051081476733088">
        <ele>10.41015625</ele>
      </trkpt>
      <trkpt lat="68.034914284944534" lon="13.050519889220595">
        <ele>15.234375</ele>
      </trkpt>
      <trkpt lat="68.03484907373786" lon="13.050541765987873">
        <ele>14.6484375</ele>
      </trkpt>
      <trkpt lat="68.034716639667749" lon="13.050505556166172">
        <ele>13.96484375</ele>
      </trkpt>
      <trkpt lat="68.034545900300145" lon="13.050310844555497">
        <ele>13.17578125</ele>
      </trkpt>
      <trkpt lat="68.034319840371609" lon="13.05031000636518">
        <ele>9.71484375</ele>
      </trkpt>
      <trkpt lat="68.034221101552248" lon="13.050258290022612">
        <ele>8.55859375</ele>
      </trkpt>
      <trkpt lat="68.034134013578296" lon="13.050027117133141">
        <ele>8.5078125</ele>
      </trkpt>
      <trkpt lat="68.034060336649418" lon="13.049502912908792">
        <ele>11.44140625</ele>
      </trkpt>
      <trkpt lat="68.033868977800012" lon="13.049439210444689">
        <ele>9.79296875</ele>
      </trkpt>
      <trkpt lat="68.033722043037415" lon="13.04964791983366">
        <ele>6.73828125</ele>
      </trkpt>
      <trkpt lat="68.033401854336262" lon="13.048828337341547">
        <ele>8.87890625</ele>
      </trkpt>
      <trkpt lat="68.033283250406384" lon="13.0486701708287">
        <ele>8.91015625</ele>
      </trkpt>
      <trkpt lat="68.033164059743285" lon="13.0480588786304">
        <ele>11.9296875</ele>
      </trkpt>
      <trkpt lat="68.032538685947657" lon="13.046921538189054">
        <ele>13.84375</ele>
      </trkpt>
      <trkpt lat="68.032327545806766" lon="13.047113735228777">
        <ele>12.0546875</ele>
      </trkpt>
      <trkpt lat="68.032157393172383" lon="13.047188082709908">
        <ele>12.265625</ele>
      </trkpt>
      <trkpt lat="68.032102575525641" lon="13.047066377475858">
        <ele>13.12109375</ele>
      </trkpt>
      <trkpt lat="68.031964022666216" lon="13.046892704442143">
        <ele>14.35546875</ele>
      </trkpt>
      <trkpt lat="68.031942984089255" lon="13.046919275075197">
        <ele>14.3046875</ele>
      </trkpt>
      <trkpt lat="68.031759420409799" lon="13.046574024483562">
        <ele>16.41015625</ele>
      </trkpt>
      <trkpt lat="68.031543418765068" lon="13.046642588451505">
        <ele>17.4609375</ele>
      </trkpt>
      <trkpt lat="68.03150980733335" lon="13.046605037525296">
        <ele>17.75</ele>
      </trkpt>
      <trkpt lat="68.03144627250731" lon="13.045816384255886">
        <ele>18.78515625</ele>
      </trkpt>
      <trkpt lat="68.031208561733365" lon="13.044657502323389">
        <ele>20.40625</ele>
      </trkpt>
      <trkpt lat="68.031107895076275" lon="13.044562032446265">
        <ele>21.3515625</ele>
      </trkpt>
      <trkpt lat="68.030981998890638" lon="13.044240167364478">
        <ele>22.96484375</ele>
      </trkpt>
      <trkpt lat="68.030777228996158" lon="13.043950069695711">
        <ele>25.1328125</ele>
      </trkpt>
      <trkpt lat="68.030702378600836" lon="13.043743707239628">
        <ele>26.41015625</ele>
      </trkpt>
      <trkpt lat="68.030620738863945" lon="13.043735576793551">
        <ele>27.02734375</ele>
      </trkpt>
      <trkpt lat="68.030469277873635" lon="13.043829370290041">
        <ele>27.78125</ele>
      </trkpt>
      <trkpt lat="68.030413202941418" lon="13.04369785822928">
        <ele>28.69921875</ele>
      </trkpt>
      <trkpt lat="68.03042552433908" lon="13.043813947588205">
        <ele>28.15234375</ele>
      </trkpt>
      <trkpt lat="68.030325947329402" lon="13.043721746653318">
        <ele>29.203125</ele>
      </trkpt>
      <trkpt lat="68.030151436105371" lon="13.043168876320124">
        <ele>33.20703125</ele>
      </trkpt>
      <trkpt lat="68.029842730611563" lon="13.042935356497765">
        <ele>35.859375</ele>
      </trkpt>
      <trkpt lat="68.029731083661318" lon="13.042734274640679">
        <ele>37.74609375</ele>
      </trkpt>
      <trkpt lat="68.029587836936116" lon="13.042870732024312">
        <ele>37.17578125</ele>
      </trkpt>
      <trkpt lat="68.029496306553483" lon="13.042841563001275">
        <ele>37.44921875</ele>
      </trkpt>
      <trkpt lat="68.029350880533457" lon="13.042669901624322">
        <ele>38.62109375</ele>
      </trkpt>
      <trkpt lat="68.029253398999572" lon="13.042726228013635">
        <ele>38.30859375</ele>
      </trkpt>
      <trkpt lat="68.029196988791227" lon="13.042709296569228">
        <ele>38.42578125</ele>
      </trkpt>
      <trkpt lat="68.029072601348162" lon="13.042570995166898">
        <ele>39.390625</ele>
      </trkpt>
      <trkpt lat="68.029027925804257" lon="13.042569234967232">
        <ele>39.4765625</ele>
      </trkpt>
      <trkpt lat="68.028982328251004" lon="13.042683899402618">
        <ele>38.87890625</ele>
      </trkpt>
      <trkpt lat="68.028741264715791" lon="13.042845502495766">
        <ele>38.9375</ele>
      </trkpt>
      <trkpt lat="68.028609082102776" lon="13.042771993204951">
        <ele>39.5390625</ele>
      </trkpt>
      <trkpt lat="68.028498524799943" lon="13.042779956012964">
        <ele>41.07421875</ele>
      </trkpt>
      <trkpt lat="68.028412107378244" lon="13.042606953531504">
        <ele>43.75390625</ele>
      </trkpt>
      <trkpt lat="68.028222089633346" lon="13.041900191456079">
        <ele>51.55859375</ele>
      </trkpt>
      <trkpt lat="68.028066102415323" lon="13.041681256145239">
        <ele>55.49609375</ele>
      </trkpt>
      <trkpt lat="68.027935344725847" lon="13.041428625583649">
        <ele>59.71875</ele>
      </trkpt>
      <trkpt lat="68.027778686955571" lon="13.041554186493158">
        <ele>65.5078125</ele>
      </trkpt>
      <trkpt lat="68.027649102732539" lon="13.041365928947926">
        <ele>70.99609375</ele>
      </trkpt>
      <trkpt lat="68.027575090527534" lon="13.04149467498064">
        <ele>73.6640625</ele>
      </trkpt>
      <trkpt lat="68.027428071945906" lon="13.041451340541244">
        <ele>79.44140625</ele>
      </trkpt>
      <trkpt lat="68.027188265696168" lon="13.041189573705196">
        <ele>88.078125</ele>
      </trkpt>
      <trkpt lat="68.027098244056106" lon="13.041008524596691">
        <ele>91.3203125</ele>
      </trkpt>
      <trkpt lat="68.027015430852771" lon="13.040993604809046">
        <ele>94.3046875</ele>
      </trkpt>
      <trkpt lat="68.026895904913545" lon="13.040872486308217">
        <ele>98.73046875</ele>
      </trkpt>
      <trkpt lat="68.026616703718901" lon="13.040395556017756">
        <ele>105.78515625</ele>
      </trkpt>
      <trkpt lat="68.026500781998038" lon="13.040556237101555">
        <ele>108.00390625</ele>
      </trkpt>
      <trkpt lat="68.026354182511568" lon="13.040552800521255">
        <ele>111.17578125</ele>
      </trkpt>
      <trkpt lat="68.026175480335951" lon="13.041131570935249">
        <ele>114.09375</ele>
      </trkpt>
      <trkpt lat="68.026035251095891" lon="13.041039202362299">
        <ele>117.28515625</ele>
      </trkpt>
      <trkpt lat="68.025530995801091" lon="13.040470406413078">
        <ele>128.19921875</ele>
      </trkpt>
      <trkpt lat="68.025347851216793" lon="13.040148373693228">
        <ele>132.22265625</ele>
      </trkpt>
      <trkpt lat="68.025235114619136" lon="13.039840422570705">
        <ele>134.66015625</ele>
      </trkpt>
      <trkpt lat="68.025222038850188" lon="13.039926923811436">
        <ele>134.9453125</ele>
      </trkpt>
      <trkpt lat="68.024980304762721" lon="13.04001116193831">
        <ele>137.875</ele>
      </trkpt>
      <trkpt lat="68.024863796308637" lon="13.039988949894905">
        <ele>139.3046875</ele>
      </trkpt>
      <trkpt lat="68.024731865152717" lon="13.040061788633466">
        <ele>140.78515625</ele>
      </trkpt>
      <trkpt lat="68.024641675874591" lon="13.040013508871198">
        <ele>141.796875</ele>
      </trkpt>
      <trkpt lat="68.024537907913327" lon="13.040054747834802">
        <ele>142.28125</ele>
      </trkpt>
      <trkpt lat="68.024358116090298" lon="13.040038486942649">
        <ele>143.28515625</ele>
      </trkpt>
      <trkpt lat="68.024220066145062" lon="13.040101351216435">
        <ele>143.91796875</ele>
      </trkpt>
      <trkpt lat="68.024017391726375" lon="13.040344174951315">
        <ele>144.421875</ele>
      </trkpt>
      <trkpt lat="68.023952096700668" lon="13.040532181039453">
        <ele>144.56640625</ele>
      </trkpt>
      <trkpt lat="68.023887136951089" lon="13.040578197687864">
        <ele>144.80078125</ele>
      </trkpt>
      <trkpt lat="68.023753697052598" lon="13.040466131642461">
        <ele>145.28125</ele>
      </trkpt>
      <trkpt lat="68.023619502782822" lon="13.040020214393735">
        <ele>147.0078125</ele>
      </trkpt>
      <trkpt lat="68.023308534175158" lon="13.039511349052191">
        <ele>148.53125</ele>
      </trkpt>
      <trkpt lat="68.023055987432599" lon="13.03881355561316">
        <ele>150.02734375</ele>
      </trkpt>
      <trkpt lat="68.022781480103731" lon="13.03827166557312">
        <ele>149.91796875</ele>
      </trkpt>
      <trkpt lat="68.022631444036961" lon="13.038183320313692">
        <ele>148.33984375</ele>
      </trkpt>
      <trkpt lat="68.022571932524443" lon="13.037987519055605">
        <ele>148.98828125</ele>
      </trkpt>
      <trkpt lat="68.022413682192564" lon="13.037717705592513">
        <ele>149.0625</ele>
      </trkpt>
      <trkpt lat="68.022442348301411" lon="13.03760907612741">
        <ele>150.01953125</ele>
      </trkpt>
      <trkpt lat="68.02237537689507" lon="13.037595245987177">
        <ele>149.64453125</ele>
      </trkpt>
      <trkpt lat="68.022187706083059" lon="13.037008261308074">
        <ele>151.54296875</ele>
      </trkpt>
      <trkpt lat="68.022061809897423" lon="13.036869708448648">
        <ele>150.15625</ele>
      </trkpt>
      <trkpt lat="68.021988216787577" lon="13.036607606336474">
        <ele>149.6875</ele>
      </trkpt>
      <trkpt lat="68.021988300606608" lon="13.036483051255345">
        <ele>150.1484375</ele>
      </trkpt>
      <trkpt lat="68.021817477419972" lon="13.036335194483399">
        <ele>149.08984375</ele>
      </trkpt>
      <trkpt lat="68.021791409701109" lon="13.03608457557857">
        <ele>150.8828125</ele>
      </trkpt>
      <trkpt lat="68.021629890426993" lon="13.03569758310914">
        <ele>152.41796875</ele>
      </trkpt>
      <trkpt lat="68.021517153829336" lon="13.035231381654739">
        <ele>155.09375</ele>
      </trkpt>
      <trkpt lat="68.021520841866732" lon="13.034985456615686">
        <ele>156.30859375</ele>
      </trkpt>
      <trkpt lat="68.021419085562229" lon="13.03487129509449">
        <ele>155.78515625</ele>
      </trkpt>
      <trkpt lat="68.021247088909149" lon="13.034919239580631">
        <ele>154.3671875</ele>
      </trkpt>
      <trkpt lat="68.021218338981271" lon="13.035068353638053">
        <ele>153.6640625</ele>
      </trkpt>
      <trkpt lat="68.021151451393962" lon="13.035090984776616">
        <ele>153.27734375</ele>
      </trkpt>
      <trkpt lat="68.020936036482453" lon="13.034976655617356">
        <ele>152.8828125</ele>
      </trkpt>
      <trkpt lat="68.02072380669415" lon="13.035135241225362">
        <ele>151.8671875</ele>
      </trkpt>
      <trkpt lat="68.020492633804679" lon="13.035116130486131">
        <ele>154.05078125</ele>
      </trkpt>
      <trkpt lat="68.02041158080101" lon="13.035027785226703">
        <ele>155.2578125</ele>
      </trkpt>
      <trkpt lat="68.020333042368293" lon="13.034787140786648">
        <ele>157.16015625</ele>
      </trkpt>
      <trkpt lat="68.020153166726232" lon="13.034529983997345">
        <ele>159.1171875</ele>
      </trkpt>
      <trkpt lat="68.020089464262128" lon="13.03446913138032">
        <ele>159.77734375</ele>
      </trkpt>
      <trkpt lat="68.019859464839101" lon="13.034406853839755">
        <ele>161.89453125</ele>
      </trkpt>
      <trkpt lat="68.019712697714567" lon="13.034034864977002">
        <ele>164.10546875</ele>
      </trkpt>
      <trkpt lat="68.019532319158316" lon="13.034257991239429">
        <ele>165.0234375</ele>
      </trkpt>
      <trkpt lat="68.019453529268503" lon="13.034290345385671">
        <ele>165.49609375</ele>
      </trkpt>
      <trkpt lat="68.019192600622773" lon="13.034307276830077">
        <ele>167.28125</ele>
      </trkpt>
      <trkpt lat="68.019094867631793" lon="13.034225050359964">
        <ele>168.328125</ele>
      </trkpt>
      <trkpt lat="68.018820276483893" lon="13.034286741167307">
        <ele>170.0625</ele>
      </trkpt>
      <trkpt lat="68.018718603998423" lon="13.034450858831406">
        <ele>169.6953125</ele>
      </trkpt>
      <trkpt lat="68.018593629822135" lon="13.034489499405026">
        <ele>170.25390625</ele>
      </trkpt>
      <trkpt lat="68.018493633717299" lon="13.034713715314865">
        <ele>169.1328125</ele>
      </trkpt>
      <trkpt lat="68.018298000097275" lon="13.034770460799336">
        <ele>169.45703125</ele>
      </trkpt>
      <trkpt lat="68.018266651779413" lon="13.034804072231054">
        <ele>169.3046875</ele>
      </trkpt>
      <trkpt lat="68.018193813040853" lon="13.034951174631715">
        <ele>168.4765625</ele>
      </trkpt>
      <trkpt lat="68.017984936013818" lon="13.03516005165875">
        <ele>167.7734375</ele>
      </trkpt>
      <trkpt lat="68.018035311251879" lon="13.03526415489614">
        <ele>166.79296875</ele>
      </trkpt>
      <trkpt lat="68.018011171370745" lon="13.035596078261733">
        <ele>164.49609375</ele>
      </trkpt>
      <trkpt lat="68.017789386212826" lon="13.035746784880757">
        <ele>163.95703125</ele>
      </trkpt>
      <trkpt lat="68.017638931050897" lon="13.03543321788311">
        <ele>166.953125</ele>
      </trkpt>
      <trkpt lat="68.017580341547728" lon="13.035388793796301">
        <ele>167.546875</ele>
      </trkpt>
      <trkpt lat="68.01753013394773" lon="13.035443862900138">
        <ele>167.23828125</ele>
      </trkpt>
      <trkpt lat="68.017473388463259" lon="13.035406563431025">
        <ele>167.765625</ele>
      </trkpt>
      <trkpt lat="68.017413122579455" lon="13.035609321668744">
        <ele>166.5625</ele>
      </trkpt>
      <trkpt lat="68.01730046980083" lon="13.035682830959558">
        <ele>167.5859375</ele>
      </trkpt>
      <trkpt lat="68.017181614413857" lon="13.035845691338181">
        <ele>167.50390625</ele>
      </trkpt>
      <trkpt lat="68.016961924731731" lon="13.036247855052352">
        <ele>167.07421875</ele>
      </trkpt>
      <trkpt lat="68.016935689374804" lon="13.036419935524464">
        <ele>166.1640625</ele>
      </trkpt>
      <trkpt lat="68.016842398792505" lon="13.036469556391239">
        <ele>167.30078125</ele>
      </trkpt>
      <trkpt lat="68.01671214401722" lon="13.036677427589893">
        <ele>168.703125</ele>
      </trkpt>
      <trkpt lat="68.016631174832582" lon="13.037034161388874">
        <ele>168.23046875</ele>
      </trkpt>
      <trkpt lat="68.016555653885007" lon="13.03714781999588">
        <ele>169.69140625</ele>
      </trkpt>
      <trkpt lat="68.016170002520084" lon="13.03718838840723">
        <ele>180.38671875</ele>
      </trkpt>
      <trkpt lat="68.01610236056149" lon="13.037397935986519">
        <ele>181.5078125</ele>
      </trkpt>
      <trkpt lat="68.015943523496389" lon="13.037243541330099">
        <ele>187.609375</ele>
      </trkpt>
      <trkpt lat="68.015788290649652" lon="13.037325013428926">
        <ele>191.859375</ele>
      </trkpt>
      <trkpt lat="68.015766581520438" lon="13.037452083081007">
        <ele>191.421875</ele>
      </trkpt>
      <trkpt lat="68.0157012026757" lon="13.037519892677665">
        <ele>194.0078125</ele>
      </trkpt>
      <trkpt lat="68.015638338401914" lon="13.037458788603544">
        <ele>197.66796875</ele>
      </trkpt>
      <trkpt lat="68.015590393915772" lon="13.037520395591855">
        <ele>199.58984375</ele>
      </trkpt>
      <trkpt lat="68.015577401965857" lon="13.037639670073986">
        <ele>199.703125</ele>
      </trkpt>
      <trkpt lat="68.015470532700419" lon="13.037643525749445">
        <ele>205.28515625</ele>
      </trkpt>
      <trkpt lat="68.015365591272712" lon="13.037467086687684">
        <ele>211.078125</ele>
      </trkpt>
      <trkpt lat="68.015383193269372" lon="13.03773757070303">
        <ele>210.0546875</ele>
      </trkpt>
      <trkpt lat="68.015190241858363" lon="13.037643525749445">
        <ele>220.0859375</ele>
      </trkpt>
      <trkpt lat="68.015123857185245" lon="13.037718376144767">
        <ele>224.015625</ele>
      </trkpt>
      <trkpt lat="68.015077589079738" lon="13.037712508812547">
        <ele>226.66015625</ele>
      </trkpt>
      <trkpt lat="68.015036853030324" lon="13.037839327007532">
        <ele>229.14453125</ele>
      </trkpt>
      <trkpt lat="68.01498387940228" lon="13.037784341722727">
        <ele>232.1015625</ele>
      </trkpt>
      <trkpt lat="68.014958314597607" lon="13.037848044186831">
        <ele>233.62109375</ele>
      </trkpt>
      <trkpt lat="68.014802914112806" lon="13.037756429985166">
        <ele>242.41796875</ele>
      </trkpt>
      <trkpt lat="68.014692272990942" lon="13.037834297865629">
        <ele>248.75</ele>
      </trkpt>
      <trkpt lat="68.014654638245702" lon="13.037746455520391">
        <ele>250.90234375</ele>
      </trkpt>
      <trkpt lat="68.014567382633686" lon="13.037726758047938">
        <ele>255.93359375</ele>
      </trkpt>
      <trkpt lat="68.014494711533189" lon="13.037827257066965">
        <ele>260.12109375</ele>
      </trkpt>
      <trkpt lat="68.014417178928852" lon="13.037706976756454">
        <ele>264.58984375</ele>
      </trkpt>
      <trkpt lat="68.014378622174263" lon="13.037762129679322">
        <ele>266.8125</ele>
      </trkpt>
      <trkpt lat="68.01423286087811" lon="13.037696331739426">
        <ele>275.2109375</ele>
      </trkpt>
      <trkpt lat="68.014114089310169" lon="13.037555012851954">
        <ele>282.16015625</ele>
      </trkpt>
      <trkpt lat="68.014080729335546" lon="13.037438588216901">
        <ele>284.29296875</ele>
      </trkpt>
      <trkpt lat="68.014010572806001" lon="13.037484018132091">
        <ele>288.25390625</ele>
      </trkpt>
      <trkpt lat="68.01395240239799" lon="13.037414951249957">
        <ele>291.73046875</ele>
      </trkpt>
      <trkpt lat="68.01371636800468" lon="13.037583930417895">
        <ele>305.03125</ele>
      </trkpt>
      <trkpt lat="68.013657527044415" lon="13.037579488009214">
        <ele>308.4296875</ele>
      </trkpt>
      <trkpt lat="68.01366456784308" lon="13.037559371441603">
        <ele>308.05859375</ele>
      </trkpt>
      <trkpt lat="68.013664148747921" lon="13.037558617070317">
        <ele>308.0859375</ele>
      </trkpt>
      <trkpt lat="68.013633470982313" lon="13.03751670755446">
        <ele>309.9296875</ele>
      </trkpt>
      <trkpt lat="68.013488296419382" lon="13.037554509937763">
        <ele>318.1640625</ele>
      </trkpt>
      <trkpt lat="68.013284783810377" lon="13.037134911864996">
        <ele>328.5859375</ele>
      </trkpt>
      <trkpt lat="68.013172717764974" lon="13.036514483392239">
        <ele>344.6328125</ele>
      </trkpt>
      <trkpt lat="68.013134496286511" lon="13.03656050004065">
        <ele>346.37109375</ele>
      </trkpt>
      <trkpt lat="68.013076325878501" lon="13.036538707092404">
        <ele>350.94140625</ele>
      </trkpt>
      <trkpt lat="68.013008432462811" lon="13.036381294950843">
        <ele>356.08984375</ele>
      </trkpt>
      <trkpt lat="68.012987645342946" lon="13.036398226395249">
        <ele>357.09375</ele>
      </trkpt>
      <trkpt lat="68.012847919017076" lon="13.03623603656888">
        <ele>362.15625</ele>
      </trkpt>
      <trkpt lat="68.012737613171339" lon="13.036330919712782">
        <ele>366.73046875</ele>
      </trkpt>
      <trkpt lat="68.012584811076522" lon="13.036693520843983">
        <ele>370.59765625</ele>
      </trkpt>
      <trkpt lat="68.012457489967346" lon="13.036687988787889">
        <ele>376.3046875</ele>
      </trkpt>
      <trkpt lat="68.01239169202745" lon="13.03656343370676">
        <ele>379.2578125</ele>
      </trkpt>
      <trkpt lat="68.012309381738305" lon="13.036586986854672">
        <ele>382.5703125</ele>
      </trkpt>
      <trkpt lat="68.012198656797409" lon="13.036503167822957">
        <ele>387.3828125</ele>
      </trkpt>
      <trkpt lat="68.012080388143659" lon="13.036754876375198">
        <ele>391.2265625</ele>
      </trkpt>
      <trkpt lat="68.011945523321629" lon="13.036783207207918">
        <ele>396.4453125</ele>
      </trkpt>
      <trkpt lat="68.011825075373054" lon="13.03698462434113">
        <ele>397.15625</ele>
      </trkpt>
      <trkpt lat="68.011710662394762" lon="13.036843808367848">
        <ele>397.6171875</ele>
      </trkpt>
      <trkpt lat="68.011623322963715" lon="13.036601739004254">
        <ele>398.8828125</ele>
      </trkpt>
      <trkpt lat="68.011623155325651" lon="13.036602912470698">
        <ele>398.875</ele>
      </trkpt>
      <trkpt lat="68.011623155325651" lon="13.036603415384889">
        <ele>398.87109375</ele>
      </trkpt>
      <trkpt lat="68.011623155325651" lon="13.036603331565857">
        <ele>398.87109375</ele>
      </trkpt>
      <trkpt lat="68.011609660461545" lon="13.03662596270442">
        <ele>398.69921875</ele>
      </trkpt>
      <trkpt lat="68.011595411226153" lon="13.036652784794569">
        <ele>398.49609375</ele>
      </trkpt>
      <trkpt lat="68.011565320193768" lon="13.036358496174216">
        <ele>401.265625</ele>
      </trkpt>
      <trkpt lat="68.011268517002463" lon="13.035532711073756">
        <ele>405.9453125</ele>
      </trkpt>
      <trkpt lat="68.011175896972418" lon="13.035000376403332">
        <ele>407.28515625</ele>
      </trkpt>
      <trkpt lat="68.01111001521349" lon="13.034092616289854">
        <ele>410.01171875</ele>
      </trkpt>
      <trkpt lat="68.01113398745656" lon="13.033706545829773">
        <ele>415.12109375</ele>
      </trkpt>
      <trkpt lat="68.011104566976428" lon="13.033462380990386">
        <ele>414.640625</ele>
      </trkpt>
      <trkpt lat="68.011068357154727" lon="13.032506257295609">
        <ele>417.234375</ele>
      </trkpt>
      <trkpt lat="68.01096249371767" lon="13.031524820253253">
        <ele>418.71484375</ele>
      </trkpt>
      <trkpt lat="68.010851768776774" lon="13.03071110509336">
        <ele>423.23828125</ele>
      </trkpt>
      <trkpt lat="68.010833747684956" lon="13.030777322128415">
        <ele>421.546875</ele>
      </trkpt>
      <trkpt lat="68.010734841227531" lon="13.030493594706059">
        <ele>417.73828125</ele>
      </trkpt>
      <trkpt lat="68.010694105178118" lon="13.030010964721441">
        <ele>418.734375</ele>
      </trkpt>
      <trkpt lat="68.010547924786806" lon="13.029593965038657">
        <ele>412.67578125</ele>
      </trkpt>
      <trkpt lat="68.010284062474966" lon="13.02798212505877">
        <ele>413.03515625</ele>
      </trkpt>
      <trkpt lat="68.010120196267962" lon="13.027527742087841">
        <ele>412.35546875</ele>
      </trkpt>
      <trkpt lat="68.01006680354476" lon="13.0274348706007">
        <ele>411.4296875</ele>
      </trkpt>
      <trkpt lat="68.010028330609202" lon="13.027415005490184">
        <ele>409.91796875</ele>
      </trkpt>
      <trkpt lat="68.010009219869971" lon="13.027412993833423">
        <ele>409.0234375</ele>
      </trkpt>
      <trkpt lat="68.009944595396519" lon="13.02735323086381">
        <ele>406.95703125</ele>
      </trkpt>
      <trkpt lat="68.009860021993518" lon="13.026987863704562">
        <ele>409.6484375</ele>
      </trkpt>
      <trkpt lat="68.009699424728751" lon="13.027027426287532">
        <ele>401.02734375</ele>
      </trkpt>
      <trkpt lat="68.00966220907867" lon="13.026962885633111">
        <ele>400.80078125</ele>
      </trkpt>
      <trkpt lat="68.009484345093369" lon="13.026490900665522">
        <ele>405.4921875</ele>
      </trkpt>
      <trkpt lat="68.009071620181203" lon="13.025797717273235">
        <ele>401.5859375</ele>
      </trkpt>
      <trkpt lat="68.008932312950492" lon="13.02586636506021">
        <ele>396.80859375</ele>
      </trkpt>
      <trkpt lat="68.008847068995237" lon="13.02560199983418">
        <ele>399.1640625</ele>
      </trkpt>
      <trkpt lat="68.008838184177876" lon="13.025440648198128">
        <ele>401.69140625</ele>
      </trkpt>
      <trkpt lat="68.00860776565969" lon="13.025123560801148">
        <ele>404.34765625</ele>
      </trkpt>
      <trkpt lat="68.008515229448676" lon="13.024896327406168">
        <ele>410.1484375</ele>
      </trkpt>
      <trkpt lat="68.00843384116888" lon="13.023884631693363">
        <ele>419.41796875</ele>
      </trkpt>
      <trkpt lat="68.008352285251021" lon="13.023594953119755">
        <ele>418.62890625</ele>
      </trkpt>
      <trkpt lat="68.008280536159873" lon="13.023657649755478">
        <ele>417.66015625</ele>
      </trkpt>
      <trkpt lat="68.008179953321815" lon="13.023458244279027">
        <ele>413.60546875</ele>
      </trkpt>
      <trkpt lat="68.008181964978576" lon="13.023196728900075">
        <ele>411.3203125</ele>
      </trkpt>
      <trkpt lat="68.008191520348191" lon="13.023245176300406">
        <ele>411.9296875</ele>
      </trkpt>
      <trkpt lat="68.008173834532499" lon="13.02323411218822">
        <ele>411.50390625</ele>
      </trkpt>
      <trkpt lat="68.008205518126488" lon="13.023385070264339">
        <ele>413.46875</ele>
      </trkpt>
      <trkpt lat="68.00828967243433" lon="13.023223467171192">
        <ele>413.55078125</ele>
      </trkpt>
      <trkpt lat="68.008301658555865" lon="13.023211397230625">
        <ele>413.6484375</ele>
      </trkpt>
      <trkpt lat="68.008499471470714" lon="13.02326780743897">
        <ele>417.95703125</ele>
      </trkpt>
      <trkpt lat="68.008525036275387" lon="13.023046022281051">
        <ele>418.421875</ele>
      </trkpt>
      <trkpt lat="68.008675742894411" lon="13.02315347827971">
        <ele>425.8046875</ele>
      </trkpt>
      <trkpt lat="68.008498381823301" lon="13.022908978164196">
        <ele>418.6640625</ele>
      </trkpt>
      <trkpt lat="68.008489664644003" lon="13.022974189370871">
        <ele>417.953125</ele>
      </trkpt>
      <trkpt lat="68.008435433730483" lon="13.02283781580627">
        <ele>416.703125</ele>
      </trkpt>
      <trkpt lat="68.008539453148842" lon="13.023006459698081">
        <ele>419.16796875</ele>
      </trkpt>
      <trkpt lat="68.008511709049344" lon="13.023133780807257">
        <ele>417.40234375</ele>
      </trkpt>
      <trkpt lat="68.008467201143503" lon="13.02311441861093">
        <ele>416.578125</ele>
      </trkpt>
      <trkpt lat="68.008378688246012" lon="13.023243164643645">
        <ele>415.40625</ele>
      </trkpt>
      <trkpt lat="68.008343316614628" lon="13.022932196035981">
        <ele>413.37890625</ele>
      </trkpt>
      <trkpt lat="68.008190682157874" lon="13.022919707000256">
        <ele>408.18359375</ele>
      </trkpt>
      <trkpt lat="68.008259497582912" lon="13.022453421726823">
        <ele>405.7109375</ele>
      </trkpt>
      <trkpt lat="68.008092530071735" lon="13.022464737296104">
        <ele>396.984375</ele>
      </trkpt>
      <trkpt lat="68.008057828992605" lon="13.022108171135187">
        <ele>389.47265625</ele>
      </trkpt>
      <trkpt lat="68.007975602522492" lon="13.021996105089784">
        <ele>384.4921875</ele>
      </trkpt>
      <trkpt lat="68.007997311651707" lon="13.021694691851735">
        <ele>379.203125</ele>
      </trkpt>
      <trkpt lat="68.007983397692442" lon="13.021613974124193">
        <ele>377.58203125</ele>
      </trkpt>
      <trkpt lat="68.007947104051709" lon="13.021679855883121">
        <ele>378.38671875</ele>
      </trkpt>
      <trkpt lat="68.007887173444033" lon="13.021458657458425">
        <ele>372.859375</ele>
      </trkpt>
      <trkpt lat="68.007990941405296" lon="13.020664639770985">
        <ele>352.08984375</ele>
      </trkpt>
      <trkpt lat="68.007977530360222" lon="13.02046506665647">
        <ele>347.97265625</ele>
      </trkpt>
      <trkpt lat="68.007904859259725" lon="13.020346127450466">
        <ele>344.44140625</ele>
      </trkpt>
      <trkpt lat="68.007967472076416" lon="13.020012611523271">
        <ele>335.703125</ele>
      </trkpt>
      <trkpt lat="68.007944924756885" lon="13.019800717011094">
        <ele>329.0390625</ele>
      </trkpt>
      <trkpt lat="68.007820369675756" lon="13.019702062010765">
        <ele>325.3515625</ele>
      </trkpt>
      <trkpt lat="68.007792625576258" lon="13.019419927150011">
        <ele>314.65625</ele>
      </trkpt>
      <trkpt lat="68.007885832339525" lon="13.018804779276252">
        <ele>302.5</ele>
      </trkpt>
      <trkpt lat="68.00795741379261" lon="13.018627837300301">
        <ele>299.5390625</ele>
      </trkpt>
      <trkpt lat="68.008007369935513" lon="13.01790464669466">
        <ele>289.5546875</ele>
      </trkpt>
      <trkpt lat="68.008011477068067" lon="13.017897270619869">
        <ele>289.48828125</ele>
      </trkpt>
      <trkpt lat="68.007940566167235" lon="13.017599964514375">
        <ele>285.59765625</ele>
      </trkpt>
      <trkpt lat="68.007968058809638" lon="13.017435595393181">
        <ele>283.51171875</ele>
      </trkpt>
      <trkpt lat="68.007940482348204" lon="13.017108868807554">
        <ele>280.50390625</ele>
      </trkpt>
      <trkpt lat="68.008049782365561" lon="13.016870990395546">
        <ele>276.0546875</ele>
      </trkpt>
      <trkpt lat="68.008195459842682" lon="13.016369082033634">
        <ele>271.0703125</ele>
      </trkpt>
      <trkpt lat="68.008271567523479" lon="13.015909837558866">
        <ele>267.82421875</ele>
      </trkpt>
      <trkpt lat="68.008391764014959" lon="13.015649998560548">
        <ele>264.20703125</ele>
      </trkpt>
      <trkpt lat="68.00832194276154" lon="13.015379933640361">
        <ele>260.4921875</ele>
      </trkpt>
      <trkpt lat="68.008381705731153" lon="13.015337940305471">
        <ele>259.59375</ele>
      </trkpt>
      <trkpt lat="68.008420849218965" lon="13.015081873163581">
        <ele>255.3046875</ele>
      </trkpt>
      <trkpt lat="68.00837910734117" lon="13.014725223183632">
        <ele>249.16015625</ele>
      </trkpt>
      <trkpt lat="68.008441049605608" lon="13.014520453289151">
        <ele>245.0234375</ele>
      </trkpt>
      <trkpt lat="68.008452448993921" lon="13.014251058921218">
        <ele>239.21875</ele>
      </trkpt>
      <trkpt lat="68.008396960794926" lon="13.013890301808715">
        <ele>227.640625</ele>
      </trkpt>
      <trkpt lat="68.008434176445007" lon="13.013601209968328">
        <ele>221.4453125</ele>
      </trkpt>
      <trkpt lat="68.008557893335819" lon="13.013185551390052">
        <ele>218.9921875</ele>
      </trkpt>
      <trkpt lat="68.008612627163529" lon="13.012634608894587">
        <ele>210.390625</ele>
      </trkpt>
      <trkpt lat="68.008608939126134" lon="13.012586245313287">
        <ele>209.5859375</ele>
      </trkpt>
      <trkpt lat="68.008394613862038" lon="13.012515669688582">
        <ele>205.63671875</ele>
      </trkpt>
      <trkpt lat="68.008211888372898" lon="13.012331519275904">
        <ele>200.234375</ele>
      </trkpt>
      <trkpt lat="68.008363684639335" lon="13.012498989701271">
        <ele>205.02734375</ele>
      </trkpt>
      <trkpt lat="68.008332252502441" lon="13.012320874258876">
        <ele>201.59375</ele>
      </trkpt>
      <trkpt lat="68.008174505084753" lon="13.012031279504299">
        <ele>193.55859375</ele>
      </trkpt>
      <trkpt lat="68.008097726851702" lon="13.011679071933031">
        <ele>181.28125</ele>
      </trkpt>
      <trkpt lat="68.008201997727156" lon="13.011213876307011">
        <ele>177.21875</ele>
      </trkpt>
      <trkpt lat="68.008186658844352" lon="13.011047579348087">
        <ele>175.27734375</ele>
      </trkpt>
      <trkpt lat="68.008087584748864" lon="13.010860998183489">
        <ele>170.38671875</ele>
      </trkpt>
      <trkpt lat="68.008138127624989" lon="13.010718589648604">
        <ele>169.3515625</ele>
      </trkpt>
      <trkpt lat="68.008059924468398" lon="13.010452631860971">
        <ele>163.0703125</ele>
      </trkpt>
      <trkpt lat="68.00806051120162" lon="13.010234953835607">
        <ele>160.0859375</ele>
      </trkpt>
      <trkpt lat="68.007918773218989" lon="13.009797837585211">
        <ele>152.2578125</ele>
      </trkpt>
      <trkpt lat="68.007832020521164" lon="13.009189562872052">
        <ele>142.07421875</ele>
      </trkpt>
      <trkpt lat="68.007654575631022" lon="13.008800558745861">
        <ele>132.7109375</ele>
      </trkpt>
      <trkpt lat="68.007548293098807" lon="13.008072003722191">
        <ele>118.17578125</ele>
      </trkpt>
      <trkpt lat="68.007494648918509" lon="13.007926996797323">
        <ele>115.20703125</ele>
      </trkpt>
      <trkpt lat="68.007410326972604" lon="13.007491389289498">
        <ele>106.1015625</ele>
      </trkpt>
      <trkpt lat="68.007242018356919" lon="13.006960228085518">
        <ele>94.68359375</ele>
      </trkpt>
      <trkpt lat="68.007131712511182" lon="13.00685478374362">
        <ele>91.859375</ele>
      </trkpt>
      <trkpt lat="68.006975809112191" lon="13.006308283656836">
        <ele>78.91015625</ele>
      </trkpt>
      <trkpt lat="68.00689559429884" lon="13.004961144179106">
        <ele>56.359375</ele>
      </trkpt>
      <trkpt lat="68.007037919014692" lon="13.004303248599172">
        <ele>48.3125</ele>
      </trkpt>
      <trkpt lat="68.00703976303339" lon="13.003873424604535">
        <ele>43.46484375</ele>
      </trkpt>
      <trkpt lat="68.006998859345913" lon="13.003356261178851">
        <ele>37.1171875</ele>
      </trkpt>
      <trkpt lat="68.006819905713201" lon="13.002470294013619">
        <ele>27.671875</ele>
      </trkpt>
      <trkpt lat="68.006886122748256" lon="13.002164606004953">
        <ele>24.80078125</ele>
      </trkpt>
      <trkpt lat="68.006890984252095" lon="13.001838130876422">
        <ele>22.28515625</ele>
      </trkpt>
      <trkpt lat="68.006797442212701" lon="13.001676108688116">
        <ele>21.28515625</ele>
      </trkpt>
      <trkpt lat="68.006716221570969" lon="13.001895546913147">
        <ele>23.01171875</ele>
      </trkpt>
      <trkpt lat="68.006580183282495" lon="13.001628667116165">
        <ele>21.3359375</ele>
      </trkpt>
      <trkpt lat="68.006372982636094" lon="13.001618692651391">
        <ele>21.63671875</ele>
      </trkpt>
      <trkpt lat="68.006156980991364" lon="13.001681473106146">
        <ele>22.57421875</ele>
      </trkpt>
      <trkpt lat="68.006181623786688" lon="13.001814158633351">
        <ele>23.5390625</ele>
      </trkpt>
      <trkpt lat="68.006151700392365" lon="13.001707540825009">
        <ele>22.7890625</ele>
      </trkpt>
      <trkpt lat="68.006054135039449" lon="13.001653477549553">
        <ele>22.58203125</ele>
      </trkpt>
      <trkpt lat="68.005935195833445" lon="13.001683065667748">
        <ele>23.09765625</ele>
      </trkpt>
      <trkpt lat="68.005756409838796" lon="13.001629672944546">
        <ele>23.10546875</ele>
      </trkpt>
      <trkpt lat="68.005536552518606" lon="13.001650124788284">
        <ele>24.29296875</ele>
      </trkpt>
      <trkpt lat="68.005417194217443" lon="13.00145985558629">
        <ele>23.84765625</ele>
      </trkpt>
      <trkpt lat="68.005264643579721" lon="13.000957444310188">
        <ele>23.74609375</ele>
      </trkpt>
      <trkpt lat="68.00521326251328" lon="13.000538013875484">
        <ele>23.3984375</ele>
      </trkpt>
      <trkpt lat="68.005118882283568" lon="13.000261327251792">
        <ele>24.015625</ele>
      </trkpt>
      <trkpt lat="68.004979072138667" lon="13.00028027035296">
        <ele>25.2734375</ele>
      </trkpt>
      <trkpt lat="68.004760220646858" lon="13.000193098559976">
        <ele>27.24609375</ele>
      </trkpt>
      <trkpt lat="68.004635749384761" lon="12.999869473278522">
        <ele>28.37109375</ele>
      </trkpt>
      <trkpt lat="68.004509182646871" lon="12.999779619276524">
        <ele>29.41015625</ele>
      </trkpt>
      <trkpt lat="68.00438990816474" lon="12.999356584623456">
        <ele>30.14453125</ele>
      </trkpt>
      <trkpt lat="68.004190921783447" lon="12.999880369752645">
        <ele>32.4453125</ele>
      </trkpt>
      <trkpt lat="68.003984559327364" lon="12.999574095010757">
        <ele>34.72265625</ele>
      </trkpt>
      <trkpt lat="68.003881126642227" lon="12.998797511681914">
        <ele>36.02734375</ele>
      </trkpt>
      <trkpt lat="68.003796972334385" lon="12.99845133908093">
        <ele>37.0859375</ele>
      </trkpt>
      <trkpt lat="68.003710135817528" lon="12.998291999101639">
        <ele>38.18359375</ele>
      </trkpt>
      <trkpt lat="68.003586502745748" lon="12.998100137338042">
        <ele>40.2265625</ele>
      </trkpt>
      <trkpt lat="68.003493631258607" lon="12.99819141626358">
        <ele>42.0859375</ele>
      </trkpt>
      <trkpt lat="68.00321870483458" lon="12.997733596712351">
        <ele>55.57421875</ele>
      </trkpt>
      <trkpt lat="68.003113847225904" lon="12.997693698853254">
        <ele>60.09765625</ele>
      </trkpt>
      <trkpt lat="68.003016700968146" lon="12.997540477663279">
        <ele>64.60546875</ele>
      </trkpt>
      <trkpt lat="68.003008402884007" lon="12.997679198160768">
        <ele>64.36328125</ele>
      </trkpt>
      <trkpt lat="68.002955932170153" lon="12.997710462659597">
        <ele>65.21875</ele>
      </trkpt>
      <trkpt lat="68.002863479778171" lon="12.997957477346063">
        <ele>63.96484375</ele>
      </trkpt>
      <trkpt lat="68.002773877233267" lon="12.997987484559417">
        <ele>66.08984375</ele>
      </trkpt>
      <trkpt lat="68.002456957474351" lon="12.997931325808167">
        <ele>75.76953125</ele>
      </trkpt>
      <trkpt lat="68.002394260838628" lon="12.997785732150078">
        <ele>78.99609375</ele>
      </trkpt>
      <trkpt lat="68.002321673557162" lon="12.997783133760095">
        <ele>80.9296875</ele>
      </trkpt>
      <trkpt lat="68.002259312197566" lon="12.997713563963771">
        <ele>83.0546875</ele>
      </trkpt>
      <trkpt lat="68.002163926139474" lon="12.997777434065938">
        <ele>85.1015625</ele>
      </trkpt>
      <trkpt lat="68.002103827893734" lon="12.99775798805058">
        <ele>86.75390625</ele>
      </trkpt>
      <trkpt lat="68.002034928649664" lon="12.997916825115681">
        <ele>88.11328125</ele>
      </trkpt>
      <trkpt lat="68.00188422203064" lon="12.998051773756742">
        <ele>92.578125</ele>
      </trkpt>
      <trkpt lat="68.001819849014282" lon="12.99795881845057">
        <ele>94.80078125</ele>
      </trkpt>
      <trkpt lat="68.001618096604943" lon="12.99787038937211">
        <ele>101.5</ele>
      </trkpt>
      <trkpt lat="68.001528410241008" lon="12.997735943645239">
        <ele>103.8671875</ele>
      </trkpt>
      <trkpt lat="68.001360101625323" lon="12.997941048815846">
        <ele>110.67578125</ele>
      </trkpt>
      <trkpt lat="68.001257507130504" lon="12.9978933557868">
        <ele>114.74609375</ele>
      </trkpt>
      <trkpt lat="68.001077631488442" lon="12.997983125969768">
        <ele>123</ele>
      </trkpt>
      <trkpt lat="68.000987945124507" lon="12.998111201450229">
        <ele>127.0390625</ele>
      </trkpt>
      <trkpt lat="68.000884177163243" lon="12.998055210337043">
        <ele>131.30078125</ele>
      </trkpt>
      <trkpt lat="68.000760292634368" lon="12.997887907549739">
        <ele>136.796875</ele>
      </trkpt>
      <trkpt lat="68.000638335943222" lon="12.998001147061586">
        <ele>141.80078125</ele>
      </trkpt>
      <trkpt lat="68.000587541610003" lon="12.997972648590803">
        <ele>143.99609375</ele>
      </trkpt>
      <trkpt lat="68.000506823882461" lon="12.997698979452252">
        <ele>147.671875</ele>
      </trkpt>
      <trkpt lat="68.000311609357595" lon="12.998620066791773">
        <ele>159.74609375</ele>
      </trkpt>
      <trkpt lat="68.000237764790654" lon="12.998650996014476">
        <ele>163.01171875</ele>
      </trkpt>
      <trkpt lat="68.000183450058103" lon="12.998776808381081">
        <ele>166.19921875</ele>
      </trkpt>
      <trkpt lat="67.999970046803355" lon="12.999000689014792">
        <ele>175.64453125</ele>
      </trkpt>
      <trkpt lat="67.999832415953279" lon="12.999316854402423">
        <ele>181.9140625</ele>
      </trkpt>
      <trkpt lat="67.999637871980667" lon="12.999483067542315">
        <ele>186.90234375</ele>
      </trkpt>
      <trkpt lat="67.999575845897198" lon="12.999440990388393">
        <ele>187.109375</ele>
      </trkpt>
      <trkpt lat="67.999527147039771" lon="12.999860337004066">
        <ele>189.16796875</ele>
      </trkpt>
      <trkpt lat="67.999365879222751" lon="13.000023448839784">
        <ele>193.1015625</ele>
      </trkpt>
      <trkpt lat="67.999217268079519" lon="13.000123696401715">
        <ele>194.85546875</ele>
      </trkpt>
      <trkpt lat="67.999020125716925" lon="13.000097209587693">
        <ele>192.984375</ele>
      </trkpt>
      <trkpt lat="67.998732291162014" lon="12.999763358384371">
        <ele>187.37890625</ele>
      </trkpt>
      <trkpt lat="67.998627265915275" lon="12.999805016443133">
        <ele>186.43359375</ele>
      </trkpt>
      <trkpt lat="67.998619051650167" lon="12.999941641464829">
        <ele>186.625</ele>
      </trkpt>
      <trkpt lat="67.998598348349333" lon="12.999904341995716">
        <ele>186.34375</ele>
      </trkpt>
      <trkpt lat="67.998596923425794" lon="12.999898474663496">
        <ele>186.32421875</ele>
      </trkpt>
      <trkpt lat="67.998597007244825" lon="12.999898558482528">
        <ele>186.32421875</ele>
      </trkpt>
      <trkpt lat="67.998597510159016" lon="12.999903755262494">
        <ele>186.33203125</ele>
      </trkpt>
      <trkpt lat="67.998598096892238" lon="12.999907694756985">
        <ele>186.34375</ele>
      </trkpt>
      <trkpt lat="67.998585859313607" lon="12.99966218881309">
        <ele>185.46875</ele>
      </trkpt>
      <trkpt lat="67.998513355851173" lon="12.999684484675527">
        <ele>184.77734375</ele>
      </trkpt>
      <trkpt lat="67.998469769954681" lon="12.99986151047051">
        <ele>184.91015625</ele>
      </trkpt>
      <trkpt lat="67.998222419992089" lon="13.00026660785079">
        <ele>177.19140625</ele>
      </trkpt>
      <trkpt lat="67.998187132179737" lon="13.000609092414379">
        <ele>173.33203125</ele>
      </trkpt>
      <trkpt lat="67.998123345896602" lon="13.000723421573639">
        <ele>170.5546875</ele>
      </trkpt>
      <trkpt lat="67.997910194098949" lon="13.00054463557899">
        <ele>165.62109375</ele>
      </trkpt>
      <trkpt lat="67.997801816090941" lon="13.000584030523896">
        <ele>162.80078125</ele>
      </trkpt>
      <trkpt lat="67.997756050899625" lon="13.000530134886503">
        <ele>162.1171875</ele>
      </trkpt>
      <trkpt lat="67.997646080330014" lon="13.000524016097188">
        <ele>159.5859375</ele>
      </trkpt>
      <trkpt lat="67.997513813897967" lon="13.000592412427068">
        <ele>155.99609375</ele>
      </trkpt>
      <trkpt lat="67.997353551909328" lon="13.000858202576637">
        <ele>151.46484375</ele>
      </trkpt>
      <trkpt lat="67.997333183884621" lon="13.000963060185313">
        <ele>150.44921875</ele>
      </trkpt>
      <trkpt lat="67.997299320995808" lon="13.000980326905847">
        <ele>149.91015625</ele>
      </trkpt>
      <trkpt lat="67.997215418145061" lon="13.000898603349924">
        <ele>149.4296875</ele>
      </trkpt>
      <trkpt lat="67.997126737609506" lon="13.001055680215359">
        <ele>147.1484375</ele>
      </trkpt>
      <trkpt lat="67.997045936062932" lon="13.001523641869426">
        <ele>142.3046875</ele>
      </trkpt>
      <trkpt lat="67.996914004907012" lon="13.001838549971581">
        <ele>137.91796875</ele>
      </trkpt>
      <trkpt lat="67.996920123696327" lon="13.002086151391268">
        <ele>136.2578125</ele>
      </trkpt>
      <trkpt lat="67.996782157570124" lon="13.002489740028977">
        <ele>132.41015625</ele>
      </trkpt>
      <trkpt lat="67.996730776503682" lon="13.002905482426286">
        <ele>128.421875</ele>
      </trkpt>
      <trkpt lat="67.996577136218548" lon="13.002806827425957">
        <ele>128.79296875</ele>
      </trkpt>
      <trkpt lat="67.99649172462523" lon="13.002769276499748">
        <ele>128.9140625</ele>
      </trkpt>
      <trkpt lat="67.996399439871311" lon="13.002936076372862">
        <ele>126.91796875</ele>
      </trkpt>
      <trkpt lat="67.996328193694353" lon="13.002931214869022">
        <ele>126.97265625</ele>
      </trkpt>
      <trkpt lat="67.996256863698363" lon="13.003087788820267">
        <ele>125.83203125</ele>
      </trkpt>
      <trkpt lat="67.99623180180788" lon="13.003310160711408">
        <ele>123.8671875</ele>
      </trkpt>
      <trkpt lat="67.996161142364144" lon="13.003476373851299">
        <ele>122.921875</ele>
      </trkpt>
      <trkpt lat="67.99625032581389" lon="13.003443516790867">
        <ele>122.703125</ele>
      </trkpt>
      <trkpt lat="67.996334563940763" lon="13.003258779644966">
        <ele>123.5859375</ele>
      </trkpt>
      <trkpt lat="67.99648879095912" lon="13.003186946734786">
        <ele>124.7734375</ele>
      </trkpt>
      <trkpt lat="67.996590714901686" lon="13.003559773787856">
        <ele>122.92578125</ele>
      </trkpt>
      <trkpt lat="67.996597671881318" lon="13.003905359655619">
        <ele>120.89453125</ele>
      </trkpt>
      <trkpt lat="67.996687609702349" lon="13.004190176725388">
        <ele>120.2109375</ele>
      </trkpt>
      <trkpt lat="67.996642347425222" lon="13.004624275490642">
        <ele>117.1796875</ele>
      </trkpt>
      <trkpt lat="67.9966676607728" lon="13.005193071439862">
        <ele>113.73828125</ele>
      </trkpt>
      <trkpt lat="67.99654888920486" lon="13.005731105804443">
        <ele>107.93359375</ele>
      </trkpt>
      <trkpt lat="67.99641402438283" lon="13.005978036671877">
        <ele>103.99609375</ele>
      </trkpt>
      <trkpt lat="67.99635929055512" lon="13.006709022447467">
        <ele>98.81640625</ele>
      </trkpt>
      <trkpt lat="67.996277064085007" lon="13.00694078207016">
        <ele>96.23046875</ele>
      </trkpt>
      <trkpt lat="67.996186204254627" lon="13.007031138986349">
        <ele>94.58984375</ele>
      </trkpt>
      <trkpt lat="67.996118394657969" lon="13.00748024135828">
        <ele>90.59765625</ele>
      </trkpt>
      <trkpt lat="67.996021332219243" lon="13.00763513892889">
        <ele>88.421875</ele>
      </trkpt>
      <trkpt lat="67.995870960876346" lon="13.008224973455071">
        <ele>80.77734375</ele>
      </trkpt>
      <trkpt lat="67.995773060247302" lon="13.008976662531495">
        <ele>72.125</ele>
      </trkpt>
      <trkpt lat="67.995704161003232" lon="13.009123681113124">
        <ele>69.421875</ele>
      </trkpt>
      <trkpt lat="67.995657222345471" lon="13.00955593585968">
        <ele>63.875</ele>
      </trkpt>
      <trkpt lat="67.995343655347824" lon="13.010697048157454">
        <ele>49.859375</ele>
      </trkpt>
      <trkpt lat="67.995283221825957" lon="13.011128380894661">
        <ele>45.73828125</ele>
      </trkpt>
      <trkpt lat="67.994664218276739" lon="13.012823201715946">
        <ele>19.7109375</ele>
      </trkpt>
      <trkpt lat="67.994507141411304" lon="13.013034509494901">
        <ele>16.5859375</ele>
      </trkpt>
      <trkpt lat="67.993994168937206" lon="13.013344136998057">
        <ele>9.1484375</ele>
      </trkpt>
      <trkpt lat="67.993928622454405" lon="13.0137131921947">
        <ele>6.95703125</ele>
      </trkpt>
      <trkpt lat="67.993466779589653" lon="13.014141423627734">
        <ele>1.3046875</ele>
      </trkpt>
      <trkpt lat="67.992595480754972" lon="13.013205751776695">
        <ele>2.15625</ele>
      </trkpt>
      <trkpt lat="67.992295073345304" lon="13.013338437303901">
        <ele>1.22265625</ele>
      </trkpt>
      <trkpt lat="67.992128860205412" lon="13.013250594958663">
        <ele>1.2265625</ele>
      </trkpt>
      <trkpt lat="67.992085106670856" lon="13.01315956749022">
        <ele>1.375</ele>
      </trkpt>
      <trkpt lat="67.992182923480868" lon="13.013196615502238">
        <ele>1.4609375</ele>
      </trkpt>
      <trkpt lat="67.992430357262492" lon="13.013090332970023">
        <ele>2.265625</ele>
      </trkpt>
      <trkpt lat="67.992469416931272" lon="13.013191586360335">
        <ele>1.98046875</ele>
      </trkpt>
      <trkpt lat="67.992485845461488" lon="13.013736410066485">
        <ele>0.046875</ele>
      </trkpt>
      <trkpt lat="67.992339748889208" lon="13.015277422964573">
        <ele>0</ele>
      </trkpt>
      <trkpt lat="67.992291217669845" lon="13.01530173048377">
        <ele>0</ele>
      </trkpt>
      <trkpt lat="67.992291050031781" lon="13.015301562845707">
        <ele>0</ele>
      </trkpt>
      <trkpt lat="67.992290379479527" lon="13.015297958627343">
        <ele>0</ele>
      </trkpt>
    </trkseg>
  </trk>

</gpx>
