<?xml version="1.0"?>
<gpx xmlns="http://www.topografix.com/GPX/1/1" xmlns:xsi="http://www.w3.org/2001/XMLSchema-instance" xmlns:wptx1="http://www.garmin.com/xmlschemas/WaypointExtension/v1" xmlns:gpxtrx="http://www.garmin.com/xmlschemas/GpxExtensions/v3" xmlns:gpxtpx="http://www.garmin.com/xmlschemas/TrackPointExtension/v1" xmlns:gpxx="http://www.garmin.com/xmlschemas/GpxExtensions/v3" xmlns:trp="http://www.garmin.com/xmlschemas/TripExtensions/v1" xmlns:adv="http://www.garmin.com/xmlschemas/AdventuresExtensions/v1" xmlns:prs="http://www.garmin.com/xmlschemas/PressureExtension/v1" xmlns:tmd="http://www.garmin.com/xmlschemas/TripMetaDataExtensions/v1" xmlns:vptm="http://www.garmin.com/xmlschemas/ViaPointTransportationModeExtensions/v1" xmlns:ctx="http://www.garmin.com/xmlschemas/CreationTimeExtension/v1" creator="Garmin Desktop App" version="1.1" xsi:schemaLocation="http://www.topografix.com/GPX/1/1 http://www.topografix.com/GPX/1/1/gpx.xsd http://www.garmin.com/xmlschemas/WaypointExtension/v1 http://www8.garmin.com/xmlschemas/WaypointExtensionv1.xsd http://www.garmin.com/xmlschemas/TrackPointExtension/v1 http://www.garmin.com/xmlschemas/TrackPointExtensionv1.xsd http://www.garmin.com/xmlschemas/GpxExtensions/v3 http://www8.garmin.com/xmlschemas/GpxExtensionsv3.xsd http://www.garmin.com/xmlschemas/ActivityExtension/v1 http://www8.garmin.com/xmlschemas/ActivityExtensionv1.xsd http://www.garmin.com/xmlschemas/AdventuresExtensions/v1 http://www8.garmin.com/xmlschemas/AdventuresExtensionv1.xsd http://www.garmin.com/xmlschemas/PressureExtension/v1 http://www.garmin.com/xmlschemas/PressureExtensionv1.xsd http://www.garmin.com/xmlschemas/TripExtensions/v1 http://www.garmin.com/xmlschemas/TripExtensionsv1.xsd http://www.garmin.com/xmlschemas/TripMetaDataExtensions/v1 http://www.garmin.com/xmlschemas/TripMetaDataExtensionsv1.xsd http://www.garmin.com/xmlschemas/ViaPointTransportationModeExtensions/v1 http://www.garmin.com/xmlschemas/ViaPointTransportationModeExtensionsv1.xsd http://www.garmin.com/xmlschemas/CreationTimeExtensions/v1 http://www.garmin.com/xmlschemas/CreationTimeExtensionsv1.xsd">

  <metadata>
    <link href="http://www.garmin.com">
      <text>Garmin International</text>
    </link>
    <time>2017-08-08T17:46:19Z</time>
    <bounds maxlat="68.188196076080203" maxlon="13.757294369861484" minlat="68.138765227049589" minlon="13.620753921568394"/>
  </metadata>

  <trk>
    <name>GT_Vestvagoya_Etape5</name>
    <extensions>
      <gpxx:TrackExtension>
        <gpxx:DisplayColor>DarkGray</gpxx:DisplayColor>
      </gpxx:TrackExtension>
    </extensions>
    <trkseg>
      <trkpt lat="68.187136016786098" lon="13.757294369861484">
        <ele>268.08203125</ele>
        <time>2015-01-16T16:01:20Z</time>
      </trkpt>
      <trkpt lat="68.187136016786098" lon="13.756564976647496">
        <ele>264.2578125</ele>
      </trkpt>
      <trkpt lat="68.187169292941689" lon="13.75574866309762">
        <ele>261.671875</ele>
      </trkpt>
      <trkpt lat="68.187169292941689" lon="13.7549605127424">
        <ele>260.6953125</ele>
      </trkpt>
      <trkpt lat="68.187235845252872" lon="13.754412168636918">
        <ele>260.80859375</ele>
      </trkpt>
      <trkpt lat="68.187369201332331" lon="13.753954600542784">
        <ele>261.046875</ele>
      </trkpt>
      <trkpt lat="68.187435669824481" lon="13.753347499296069">
        <ele>260.27734375</ele>
      </trkpt>
      <trkpt lat="68.187570367008448" lon="13.75270888209343">
        <ele>260.41015625</ele>
      </trkpt>
      <trkpt lat="68.187726940959692" lon="13.752160537987947">
        <ele>260.671875</ele>
      </trkpt>
      <trkpt lat="68.187883263453841" lon="13.751671370118856">
        <ele>260.0859375</ele>
      </trkpt>
      <trkpt lat="68.187961466610432" lon="13.751059994101524">
        <ele>259.88671875</ele>
      </trkpt>
      <trkpt lat="68.188051320612431" lon="13.750448618084192">
        <ele>259.75390625</ele>
      </trkpt>
      <trkpt lat="68.188129607588053" lon="13.749900693073869">
        <ele>260.09765625</ele>
      </trkpt>
      <trkpt lat="68.188196076080203" lon="13.749325107783079">
        <ele>261</ele>
      </trkpt>
      <trkpt lat="68.188196076080203" lon="13.748536538332701">
        <ele>261</ele>
      </trkpt>
      <trkpt lat="68.188129607588053" lon="13.747897921130061">
        <ele>261.41015625</ele>
      </trkpt>
      <trkpt lat="68.18809624761343" lon="13.747200043871999">
        <ele>261.98828125</ele>
      </trkpt>
      <trkpt lat="68.188062887638807" lon="13.746502166613936">
        <ele>262.06640625</ele>
      </trkpt>
      <trkpt lat="68.188017960637808" lon="13.745863549411297">
        <ele>262.21484375</ele>
      </trkpt>
      <trkpt lat="68.187951492145658" lon="13.745192913338542">
        <ele>262.6171875</ele>
      </trkpt>
      <trkpt lat="68.187828278169036" lon="13.744798880070448">
        <ele>262.91015625</ele>
      </trkpt>
      <trkpt lat="68.187638679519296" lon="13.744495119899511">
        <ele>262.43359375</ele>
      </trkpt>
      <trkpt lat="68.187538683414459" lon="13.743947194889188">
        <ele>263.9921875</ele>
      </trkpt>
      <trkpt lat="68.187438854947686" lon="13.743312433362007">
        <ele>266.25390625</ele>
      </trkpt>
      <trkpt lat="68.187327207997441" lon="13.742764089256525">
        <ele>267.73828125</ele>
      </trkpt>
      <trkpt lat="68.187170885503292" lon="13.742274921387434">
        <ele>268.125</ele>
      </trkpt>
      <trkpt lat="68.18696946837008" lon="13.742030337452888">
        <ele>266.8125</ele>
      </trkpt>
      <trkpt lat="68.186711557209492" lon="13.741908129304647">
        <ele>264.7890625</ele>
      </trkpt>
      <trkpt lat="68.186510307714343" lon="13.741573272272944">
        <ele>264.50390625</ele>
      </trkpt>
      <trkpt lat="68.186285756528378" lon="13.741206396371126">
        <ele>262.28515625</ele>
      </trkpt>
      <trkpt lat="68.186095906421542" lon="13.74090263620019">
        <ele>262.24609375</ele>
      </trkpt>
      <trkpt lat="68.185793235898018" lon="13.74090263620019">
        <ele>262.79296875</ele>
      </trkpt>
      <trkpt lat="68.185503557324409" lon="13.74090263620019">
        <ele>266.65625</ele>
      </trkpt>
      <trkpt lat="68.185247238725424" lon="13.740811860188842">
        <ele>271.9296875</ele>
      </trkpt>
      <trkpt lat="68.184957560151815" lon="13.740811860188842">
        <ele>280.296875</ele>
      </trkpt>
      <trkpt lat="68.184724543243647" lon="13.740630811080337">
        <ele>288.375</ele>
      </trkpt>
      <trkpt lat="68.184446515515447" lon="13.740630811080337">
        <ele>298.37890625</ele>
      </trkpt>
      <trkpt lat="68.184168571606278" lon="13.740449342876673">
        <ele>307.98046875</ele>
      </trkpt>
      <trkpt lat="68.183865733444691" lon="13.740449342876673">
        <ele>316.75390625</ele>
      </trkpt>
      <trkpt lat="68.18358619697392" lon="13.740449342876673">
        <ele>322.734375</ele>
      </trkpt>
      <trkpt lat="68.183296602219343" lon="13.740449342876673">
        <ele>327.23828125</ele>
      </trkpt>
      <trkpt lat="68.182995272800326" lon="13.740449342876673">
        <ele>330.49609375</ele>
      </trkpt>
      <trkpt lat="68.182728979736567" lon="13.740358566865325">
        <ele>332.3203125</ele>
      </trkpt>
      <trkpt lat="68.182482635602355" lon="13.74017751775682">
        <ele>332.86328125</ele>
      </trkpt>
      <trkpt lat="68.182214749976993" lon="13.740055309608579">
        <ele>333.75</ele>
      </trkpt>
      <trkpt lat="68.181935213506222" lon="13.740055309608579">
        <ele>335.67578125</ele>
      </trkpt>
      <trkpt lat="68.181635560467839" lon="13.740055309608579">
        <ele>336.01953125</ele>
      </trkpt>
      <trkpt lat="68.181355856359005" lon="13.740055309608579">
        <ele>334.84375</ele>
      </trkpt>
      <trkpt lat="68.181087970733643" lon="13.739964533597231">
        <ele>330.5546875</ele>
      </trkpt>
      <trkpt lat="68.180786725133657" lon="13.739964533597231">
        <ele>323.50390625</ele>
      </trkpt>
      <trkpt lat="68.180552115663886" lon="13.739782981574535">
        <ele>317.984375</ele>
      </trkpt>
      <trkpt lat="68.180329157039523" lon="13.739602016285062">
        <ele>313.171875</ele>
      </trkpt>
      <trkpt lat="68.180061187595129" lon="13.739511240273714">
        <ele>308.15234375</ele>
      </trkpt>
      <trkpt lat="68.179826494306326" lon="13.739207899197936">
        <ele>305.59375</ele>
      </trkpt>
      <trkpt lat="68.179570091888309" lon="13.739026430994272">
        <ele>302.6875</ele>
      </trkpt>
      <trkpt lat="68.179290639236569" lon="13.738904139026999">
        <ele>300.94140625</ele>
      </trkpt>
      <trkpt lat="68.179021161049604" lon="13.738781847059727">
        <ele>299.046875</ele>
      </trkpt>
      <trkpt lat="68.17879811860621" lon="13.738600295037031">
        <ele>298.21875</ele>
      </trkpt>
      <trkpt lat="68.178518498316407" lon="13.73847808688879">
        <ele>297.21484375</ele>
      </trkpt>
      <trkpt lat="68.17829386331141" lon="13.738297037780285">
        <ele>296.40234375</ele>
      </trkpt>
      <trkpt lat="68.17805933766067" lon="13.738115485757589">
        <ele>295.8828125</ele>
      </trkpt>
      <trkpt lat="68.177779801189899" lon="13.738024793565273">
        <ele>295.37890625</ele>
      </trkpt>
      <trkpt lat="68.17761174403131" lon="13.737630676478148">
        <ele>295.47265625</ele>
      </trkpt>
      <trkpt lat="68.177366992458701" lon="13.737449627369642">
        <ele>295.03125</ele>
      </trkpt>
      <trkpt lat="68.177222236990929" lon="13.736996334046125">
        <ele>295.68359375</ele>
      </trkpt>
      <trkpt lat="68.177032554522157" lon="13.736692573875189">
        <ele>296.7109375</ele>
      </trkpt>
      <trkpt lat="68.176819570362568" lon="13.736479505896568">
        <ele>297.859375</ele>
      </trkpt>
      <trkpt lat="68.17656165920198" lon="13.736235005781054">
        <ele>299.9140625</ele>
      </trkpt>
      <trkpt lat="68.176337108016014" lon="13.736053956672549">
        <ele>301.28125</ele>
      </trkpt>
      <trkpt lat="68.176258821040392" lon="13.73547837138176">
        <ele>301.81640625</ele>
      </trkpt>
      <trkpt lat="68.176192352548242" lon="13.734780494123697">
        <ele>304.2734375</ele>
      </trkpt>
      <trkpt lat="68.176035862416029" lon="13.734417976811528">
        <ele>310.55078125</ele>
      </trkpt>
      <trkpt lat="68.175879288464785" lon="13.734023440629244">
        <ele>316.13671875</ele>
      </trkpt>
      <trkpt lat="68.175746183842421" lon="13.73347987420857">
        <ele>319.7421875</ele>
      </trkpt>
      <trkpt lat="68.175646355375648" lon="13.732845028862357">
        <ele>321.55859375</ele>
      </trkpt>
      <trkpt lat="68.175568068400025" lon="13.732237927615643">
        <ele>321.75</ele>
      </trkpt>
      <trkpt lat="68.175501599907875" lon="13.731662342324853">
        <ele>321.03125</ele>
      </trkpt>
      <trkpt lat="68.17543487995863" lon="13.731055241078138">
        <ele>320.51953125</ele>
      </trkpt>
      <trkpt lat="68.175368411466479" lon="13.730298187583685">
        <ele>319.16015625</ele>
      </trkpt>
      <trkpt lat="68.17532348446548" lon="13.72954155318439">
        <ele>317</ele>
      </trkpt>
      <trkpt lat="68.175223488360643" lon="13.728843759745359">
        <ele>314.71875</ele>
      </trkpt>
      <trkpt lat="68.175045372918248" lon="13.728508399799466">
        <ele>315.45703125</ele>
      </trkpt>
      <trkpt lat="68.174867341294885" lon="13.728023590520024">
        <ele>315.19140625</ele>
      </trkpt>
      <trkpt lat="68.174600964412093" lon="13.727570297196507">
        <ele>316.55078125</ele>
      </trkpt>
      <trkpt lat="68.174522761255503" lon="13.726994711905718">
        <ele>311.890625</ele>
      </trkpt>
      <trkpt lat="68.174389572814107" lon="13.726360369473696">
        <ele>308.15625</ele>
      </trkpt>
      <trkpt lat="68.174199722707272" lon="13.725780509412289">
        <ele>306.2109375</ele>
      </trkpt>
      <trkpt lat="68.174066534265876" lon="13.725264184176922">
        <ele>304.96484375</ele>
      </trkpt>
      <trkpt lat="68.173955138772726" lon="13.72465280815959">
        <ele>303.19140625</ele>
      </trkpt>
      <trkpt lat="68.173788674175739" lon="13.724199514836073">
        <ele>302.23046875</ele>
      </trkpt>
      <trkpt lat="68.173655485734344" lon="13.723655445501208">
        <ele>300.61328125</ele>
      </trkpt>
      <trkpt lat="68.173465635627508" lon="13.723079860210419">
        <ele>300.1484375</ele>
      </trkpt>
      <trkpt lat="68.173275953158736" lon="13.72271734289825">
        <ele>299.49609375</ele>
      </trkpt>
      <trkpt lat="68.1731310300529" lon="13.722050981596112">
        <ele>296.84375</ele>
      </trkpt>
      <trkpt lat="68.172919806092978" lon="13.721837913617492">
        <ele>297.30078125</ele>
      </trkpt>
      <trkpt lat="68.172686621546745" lon="13.72156617231667">
        <ele>293.2734375</ele>
      </trkpt>
      <trkpt lat="68.172496939077973" lon="13.721294347196817">
        <ele>289.03515625</ele>
      </trkpt>
      <trkpt lat="68.17227398045361" lon="13.720990587025881">
        <ele>285.0390625</ele>
      </trkpt>
      <trkpt lat="68.172074072062969" lon="13.720537293702364">
        <ele>281.06640625</ele>
      </trkpt>
      <trkpt lat="68.171839378774166" lon="13.720324225723743">
        <ele>279.72265625</ele>
      </trkpt>
      <trkpt lat="68.171616336330771" lon="13.720052484422922">
        <ele>279.3984375</ele>
      </trkpt>
      <trkpt lat="68.171350043267012" lon="13.719689883291721">
        <ele>278.78125</ele>
      </trkpt>
      <trkpt lat="68.171070506796241" lon="13.719476899132133">
        <ele>277.69921875</ele>
      </trkpt>
      <trkpt lat="68.170790886506438" lon="13.719476899132133">
        <ele>276.69140625</ele>
      </trkpt>
      <trkpt lat="68.170521324500442" lon="13.71935460716486">
        <ele>276.4296875</ele>
      </trkpt>
      <trkpt lat="68.170263580977917" lon="13.719263831153512">
        <ele>277.16796875</ele>
      </trkpt>
      <trkpt lat="68.17005218937993" lon="13.718992089852691">
        <ele>276.2890625</ele>
      </trkpt>
      <trkpt lat="68.169839205220342" lon="13.718810537829995">
        <ele>276.24609375</ele>
      </trkpt>
      <trkpt lat="68.169582886621356" lon="13.718688245862722">
        <ele>277.01171875</ele>
      </trkpt>
      <trkpt lat="68.169381469488144" lon="13.718416504561901">
        <ele>277.12109375</ele>
      </trkpt>
      <trkpt lat="68.169091958552599" lon="13.718203436583281">
        <ele>277.7578125</ele>
      </trkpt>
      <trkpt lat="68.168980395421386" lon="13.717655595391989">
        <ele>274.73828125</ele>
      </trkpt>
      <trkpt lat="68.168768920004368" lon="13.717383351176977">
        <ele>274.2109375</ele>
      </trkpt>
      <trkpt lat="68.168602455407381" lon="13.717020750045776">
        <ele>271.11328125</ele>
      </trkpt>
      <trkpt lat="68.168446132913232" lon="13.716658232733607">
        <ele>266.08203125</ele>
      </trkpt>
      <trkpt lat="68.168334485962987" lon="13.716232180595398">
        <ele>263.40234375</ele>
      </trkpt>
      <trkpt lat="68.168111527338624" lon="13.715806547552347">
        <ele>259.11328125</ele>
      </trkpt>
      <trkpt lat="68.167876917868853" lon="13.715348979458213">
        <ele>254.30078125</ele>
      </trkpt>
      <trkpt lat="68.167731994763017" lon="13.714801138266921">
        <ele>249.33203125</ele>
      </trkpt>
      <trkpt lat="68.167598890140653" lon="13.714315826073289">
        <ele>245.74609375</ele>
      </trkpt>
      <trkpt lat="68.167442567646503" lon="13.713831016793847">
        <ele>242.3359375</ele>
      </trkpt>
      <trkpt lat="68.167330920696259" lon="13.713283091783524">
        <ele>239.8046875</ele>
      </trkpt>
      <trkpt lat="68.167063035070896" lon="13.713192399591208">
        <ele>238.83203125</ele>
      </trkpt>
      <trkpt lat="68.166951471939683" lon="13.712616814300418">
        <ele>235.58984375</ele>
      </trkpt>
      <trkpt lat="68.166951471939683" lon="13.711891695857048">
        <ele>231.875</ele>
      </trkpt>
      <trkpt lat="68.16691811196506" lon="13.711225334554911">
        <ele>228.31640625</ele>
      </trkpt>
      <trkpt lat="68.166750222444534" lon="13.710921574383974">
        <ele>226.125</ele>
      </trkpt>
      <trkpt lat="68.166537154465914" lon="13.710618233308196">
        <ele>223.87890625</ele>
      </trkpt>
      <trkpt lat="68.166324170306325" lon="13.710314473137259">
        <ele>220.8984375</ele>
      </trkpt>
      <trkpt lat="68.166066259145737" lon="13.710192181169987">
        <ele>219.40625</ele>
      </trkpt>
      <trkpt lat="68.165876576676965" lon="13.70988892391324">
        <ele>217.1796875</ele>
      </trkpt>
      <trkpt lat="68.165708519518375" lon="13.709462787955999">
        <ele>213.34375</ele>
      </trkpt>
      <trkpt lat="68.165540462359786" lon="13.70910027064383">
        <ele>210.078125</ele>
      </trkpt>
      <trkpt lat="68.165339212864637" lon="13.708733478561044">
        <ele>206.8671875</ele>
      </trkpt>
      <trkpt lat="68.16515950486064" lon="13.708429634571075">
        <ele>204.07421875</ele>
      </trkpt>
      <trkpt lat="68.16491324454546" lon="13.708217069506645">
        <ele>202.48828125</ele>
      </trkpt>
      <trkpt lat="68.164711995050311" lon="13.707881793379784">
        <ele>198.8671875</ele>
      </trkpt>
      <trkpt lat="68.164510577917099" lon="13.707487676292658">
        <ele>193.515625</ele>
      </trkpt>
      <trkpt lat="68.164320895448327" lon="13.707215432077646">
        <ele>188.8125</ele>
      </trkpt>
      <trkpt lat="68.16409626044333" lon="13.7069121748209">
        <ele>182.51953125</ele>
      </trkpt>
      <trkpt lat="68.163918228819966" lon="13.706517554819584">
        <ele>177.3046875</ele>
      </trkpt>
      <trkpt lat="68.163750171661377" lon="13.706155037507415">
        <ele>174.03125</ele>
      </trkpt>
      <trkpt lat="68.163572056218982" lon="13.705788245424628">
        <ele>170.078125</ele>
      </trkpt>
      <trkpt lat="68.163437275215983" lon="13.705303436145186">
        <ele>165.9609375</ele>
      </trkpt>
      <trkpt lat="68.163314145058393" lon="13.704814268276095">
        <ele>161.8671875</ele>
      </trkpt>
      <trkpt lat="68.163179364055395" lon="13.704451750963926">
        <ele>159.5234375</ele>
      </trkpt>
      <trkpt lat="68.163044666871428" lon="13.703966941684484">
        <ele>156.21875</ele>
      </trkpt>
      <trkpt lat="68.162933019921184" lon="13.703540805727243">
        <ele>153.8671875</ele>
      </trkpt>
      <trkpt lat="68.162883901968598" lon="13.703712802380323">
        <ele>154.12109375</ele>
      </trkpt>
      <trkpt lat="68.162857498973608" lon="13.703734595328569">
        <ele>153.92578125</ele>
        <time>2013-07-01T16:53:55Z</time>
      </trkpt>
      <trkpt lat="68.162789102643728" lon="13.703640215098858">
        <ele>152.9140625</ele>
        <time>2013-07-01T16:53:58Z</time>
      </trkpt>
      <trkpt lat="68.162672007456422" lon="13.703380627557635">
        <ele>151.00390625</ele>
        <time>2013-07-01T16:54:08Z</time>
      </trkpt>
      <trkpt lat="68.162669157609344" lon="13.703345926478505">
        <ele>150.8828125</ele>
        <time>2013-07-01T16:54:09Z</time>
      </trkpt>
      <trkpt lat="68.162549799308181" lon="13.703114334493876">
        <ele>148.8671875</ele>
        <time>2013-07-01T16:54:21Z</time>
      </trkpt>
      <trkpt lat="68.162503950297832" lon="13.703079968690872">
        <ele>148.34765625</ele>
        <time>2013-07-01T16:54:25Z</time>
      </trkpt>
      <trkpt lat="68.162447791546583" lon="13.702928340062499">
        <ele>147.29296875</ele>
        <time>2013-07-01T16:54:30Z</time>
      </trkpt>
      <trkpt lat="68.162436224520206" lon="13.702708818018436">
        <ele>146.35546875</ele>
        <time>2013-07-01T16:54:37Z</time>
      </trkpt>
      <trkpt lat="68.162272106856108" lon="13.702374128624797">
        <ele>144.35546875</ele>
        <time>2013-07-01T16:54:51Z</time>
      </trkpt>
      <trkpt lat="68.162253750488162" lon="13.702028710395098">
        <ele>143.4921875</ele>
        <time>2013-07-01T16:55:04Z</time>
      </trkpt>
      <trkpt lat="68.162166830152273" lon="13.701732493937016">
        <ele>142.80078125</ele>
        <time>2013-07-01T16:55:14Z</time>
      </trkpt>
      <trkpt lat="68.162165321409702" lon="13.701379196718335">
        <ele>141.83984375</ele>
        <time>2013-07-01T16:55:21Z</time>
      </trkpt>
      <trkpt lat="68.162178983911872" lon="13.701173756271601">
        <ele>141.234375</ele>
        <time>2013-07-01T16:55:26Z</time>
      </trkpt>
      <trkpt lat="68.162037581205368" lon="13.700699675828218">
        <ele>139.6796875</ele>
        <time>2013-07-01T16:55:39Z</time>
      </trkpt>
      <trkpt lat="68.161873547360301" lon="13.700414439663291">
        <ele>139.2578125</ele>
        <time>2013-07-01T16:55:52Z</time>
      </trkpt>
      <trkpt lat="68.161834990605712" lon="13.700391640886664">
        <ele>139.328125</ele>
        <time>2013-07-01T16:55:55Z</time>
      </trkpt>
      <trkpt lat="68.161806492134929" lon="13.70032986626029">
        <ele>139.22265625</ele>
        <time>2013-07-01T16:55:58Z</time>
      </trkpt>
      <trkpt lat="68.161691324785352" lon="13.700143620371819">
        <ele>139.0546875</ele>
        <time>2013-07-01T16:56:07Z</time>
      </trkpt>
      <trkpt lat="68.161439783871174" lon="13.699634587392211">
        <ele>139.109375</ele>
        <time>2013-07-01T16:56:24Z</time>
      </trkpt>
      <trkpt lat="68.161405837163329" lon="13.699567280709743">
        <ele>139.17578125</ele>
        <time>2013-07-01T16:56:27Z</time>
      </trkpt>
      <trkpt lat="68.161352109164" lon="13.699353542178869">
        <ele>138.94140625</ele>
        <time>2013-07-01T16:56:34Z</time>
      </trkpt>
      <trkpt lat="68.161205174401402" lon="13.69889572262764">
        <ele>137.99609375</ele>
        <time>2013-07-01T16:56:51Z</time>
      </trkpt>
      <trkpt lat="68.161071483045816" lon="13.698662621900439">
        <ele>136.7734375</ele>
        <time>2013-07-01T16:57:02Z</time>
      </trkpt>
      <trkpt lat="68.16094265319407" lon="13.698580898344517">
        <ele>136.44140625</ele>
        <time>2013-07-01T16:57:11Z</time>
      </trkpt>
      <trkpt lat="68.160706367343664" lon="13.698577880859375">
        <ele>136.4609375</ele>
        <time>2013-07-01T16:57:27Z</time>
      </trkpt>
      <trkpt lat="68.160480810329318" lon="13.698589950799942">
        <ele>134.9609375</ele>
        <time>2013-07-01T16:57:42Z</time>
      </trkpt>
      <trkpt lat="68.160243015736341" lon="13.698619119822979">
        <ele>133.30078125</ele>
        <time>2013-07-01T16:57:59Z</time>
      </trkpt>
      <trkpt lat="68.160051656886935" lon="13.698475956916809">
        <ele>131.62109375</ele>
        <time>2013-07-01T16:58:12Z</time>
      </trkpt>
      <trkpt lat="68.159859208390117" lon="13.698322903364897">
        <ele>130</ele>
        <time>2013-07-01T16:58:26Z</time>
      </trkpt>
      <trkpt lat="68.159623760730028" lon="13.698073290288448">
        <ele>127.8203125</ele>
        <time>2013-07-01T16:58:41Z</time>
      </trkpt>
      <trkpt lat="68.159538935869932" lon="13.698124503716826">
        <ele>127.2578125</ele>
        <time>2013-07-01T16:58:47Z</time>
      </trkpt>
      <trkpt lat="68.159459978342056" lon="13.698262637481093">
        <ele>126.796875</ele>
        <time>2013-07-01T16:58:56Z</time>
      </trkpt>
      <trkpt lat="68.159269373863935" lon="13.698490373790264">
        <ele>125.35546875</ele>
        <time>2013-07-01T16:59:12Z</time>
      </trkpt>
      <trkpt lat="68.159119673073292" lon="13.69877016171813">
        <ele>124.51171875</ele>
        <time>2013-07-01T16:59:21Z</time>
      </trkpt>
      <trkpt lat="68.158923368901014" lon="13.699058834463358">
        <ele>123.484375</ele>
        <time>2013-07-01T16:59:35Z</time>
      </trkpt>
      <trkpt lat="68.158875005319715" lon="13.699066797271371">
        <ele>123.3828125</ele>
        <time>2013-07-01T16:59:39Z</time>
      </trkpt>
      <trkpt lat="68.158693704754114" lon="13.69888449087739">
        <ele>123.3828125</ele>
        <time>2013-07-01T16:59:53Z</time>
      </trkpt>
      <trkpt lat="68.158468650653958" lon="13.698604870587587">
        <ele>122.015625</ele>
        <time>2013-07-01T17:00:10Z</time>
      </trkpt>
      <trkpt lat="68.158288858830929" lon="13.69826297275722">
        <ele>120.63671875</ele>
        <time>2013-07-01T17:00:26Z</time>
      </trkpt>
      <trkpt lat="68.158257426694036" lon="13.69809877127409">
        <ele>120.4609375</ele>
        <time>2013-07-01T17:00:31Z</time>
      </trkpt>
      <trkpt lat="68.158238315954804" lon="13.697918895632029">
        <ele>120.27734375</ele>
        <time>2013-07-01T17:00:36Z</time>
      </trkpt>
      <trkpt lat="68.158118287101388" lon="13.697385471314192">
        <ele>119.04296875</ele>
        <time>2013-07-01T17:00:53Z</time>
      </trkpt>
      <trkpt lat="68.158023487776518" lon="13.696804521605372">
        <ele>117.515625</ele>
        <time>2013-07-01T17:01:08Z</time>
      </trkpt>
      <trkpt lat="68.157998090609908" lon="13.696698239073157">
        <ele>117.23828125</ele>
        <time>2013-07-01T17:01:12Z</time>
      </trkpt>
      <trkpt lat="68.157940590754151" lon="13.696189541369677">
        <ele>116.96875</ele>
        <time>2013-07-01T17:01:27Z</time>
      </trkpt>
      <trkpt lat="68.158024745061994" lon="13.695689477026463">
        <ele>116.515625</ele>
        <time>2013-07-01T17:01:42Z</time>
      </trkpt>
      <trkpt lat="68.158053997904062" lon="13.695127218961716">
        <ele>115.3203125</ele>
        <time>2013-07-01T17:02:00Z</time>
      </trkpt>
      <trkpt lat="68.158032540231943" lon="13.695107856765389">
        <ele>115.421875</ele>
        <time>2013-07-01T17:02:02Z</time>
      </trkpt>
      <trkpt lat="68.158007813617587" lon="13.695125877857208">
        <ele>115.62890625</ele>
        <time>2013-07-01T17:02:07Z</time>
      </trkpt>
      <trkpt lat="68.158003706485033" lon="13.694999646395445">
        <ele>115.39453125</ele>
        <time>2013-07-01T17:02:11Z</time>
      </trkpt>
      <trkpt lat="68.158011669293046" lon="13.694694796577096">
        <ele>114.1640625</ele>
        <time>2013-07-01T17:02:27Z</time>
      </trkpt>
      <trkpt lat="68.158014519140124" lon="13.694708626717329">
        <ele>114.19140625</ele>
        <time>2013-07-01T17:02:47Z</time>
      </trkpt>
      <trkpt lat="68.158017368987203" lon="13.694710973650217">
        <ele>114.1796875</ele>
        <time>2013-07-01T17:02:54Z</time>
      </trkpt>
      <trkpt lat="68.157947715371847" lon="13.694790685549378">
        <ele>115.0390625</ele>
        <time>2014-06-30T11:56:11Z</time>
      </trkpt>
      <trkpt lat="68.157403143122792" lon="13.697814289480448">
        <ele>118.1640625</ele>
        <time>2014-06-30T11:56:23Z</time>
      </trkpt>
      <trkpt lat="68.156994190067053" lon="13.69888692162931">
        <ele>120.66796875</ele>
        <time>2014-06-30T11:56:34Z</time>
      </trkpt>
      <trkpt lat="68.15683669410646" lon="13.699337868019938">
        <ele>120.9921875</ele>
        <time>2014-06-30T11:56:52Z</time>
      </trkpt>
      <trkpt lat="68.156708618625998" lon="13.699632743373513">
        <ele>122.703125</ele>
        <time>2014-06-30T11:57:06Z</time>
      </trkpt>
      <trkpt lat="68.156630583107471" lon="13.699907334521413">
        <ele>124.11328125</ele>
        <time>2014-06-30T11:57:16Z</time>
      </trkpt>
      <trkpt lat="68.156481552869081" lon="13.700356017798185">
        <ele>126.08984375</ele>
        <time>2014-06-30T11:57:33Z</time>
      </trkpt>
      <trkpt lat="68.156407624483109" lon="13.70081995613873">
        <ele>126.66015625</ele>
        <time>2014-06-30T11:57:47Z</time>
      </trkpt>
      <trkpt lat="68.156348364427686" lon="13.701283056288958">
        <ele>126.44921875</ele>
        <time>2014-06-30T11:58:02Z</time>
      </trkpt>
      <trkpt lat="68.156270999461412" lon="13.701745988801122">
        <ele>125.5625</ele>
        <time>2014-06-30T11:58:17Z</time>
      </trkpt>
      <trkpt lat="68.156221797689795" lon="13.702127449214458">
        <ele>124.95703125</ele>
        <time>2014-06-30T11:58:32Z</time>
      </trkpt>
      <trkpt lat="68.156171087175608" lon="13.702143542468548">
        <ele>126.078125</ele>
        <time>2014-06-30T11:58:40Z</time>
      </trkpt>
      <trkpt lat="68.156153066083789" lon="13.702115463092923">
        <ele>126.5859375</ele>
        <time>2014-06-30T11:58:42Z</time>
      </trkpt>
      <trkpt lat="68.156051393598318" lon="13.701959308236837">
        <ele>129.3984375</ele>
        <time>2014-06-30T11:58:55Z</time>
      </trkpt>
      <trkpt lat="68.155988529324532" lon="13.701900467276573">
        <ele>130.98046875</ele>
        <time>2014-06-30T11:59:06Z</time>
      </trkpt>
      <trkpt lat="68.155909404158592" lon="13.701908932998776">
        <ele>132.734375</ele>
        <time>2014-06-30T11:59:18Z</time>
      </trkpt>
      <trkpt lat="68.155826423317194" lon="13.701892672106624">
        <ele>134.6328125</ele>
        <time>2014-06-30T11:59:31Z</time>
      </trkpt>
      <trkpt lat="68.155752746388316" lon="13.701934330165386">
        <ele>136.19921875</ele>
        <time>2014-06-30T11:59:43Z</time>
      </trkpt>
      <trkpt lat="68.15567965619266" lon="13.701945897191763">
        <ele>137.87109375</ele>
        <time>2014-06-30T11:59:55Z</time>
      </trkpt>
      <trkpt lat="68.155589047819376" lon="13.702030638232827">
        <ele>140.0703125</ele>
        <time>2014-06-30T12:00:08Z</time>
      </trkpt>
      <trkpt lat="68.155538169667125" lon="13.702159719541669">
        <ele>141.2890625</ele>
        <time>2014-06-30T12:00:18Z</time>
      </trkpt>
      <trkpt lat="68.155456613749266" lon="13.70229265652597">
        <ele>143.51953125</ele>
        <time>2014-06-30T12:00:31Z</time>
      </trkpt>
      <trkpt lat="68.155399281531572" lon="13.702330039814115">
        <ele>145.12109375</ele>
        <time>2014-06-30T12:00:41Z</time>
      </trkpt>
      <trkpt lat="68.155329963192344" lon="13.702425844967365">
        <ele>147.13671875</ele>
        <time>2014-06-30T12:00:54Z</time>
      </trkpt>
      <trkpt lat="68.155270116403699" lon="13.70247395709157">
        <ele>148.859375</ele>
        <time>2014-06-30T12:01:05Z</time>
      </trkpt>
      <trkpt lat="68.155171042308211" lon="13.702426515519619">
        <ele>151.54296875</ele>
        <time>2014-06-30T12:01:17Z</time>
      </trkpt>
      <trkpt lat="68.155104741454124" lon="13.702394496649504">
        <ele>152.9140625</ele>
        <time>2014-06-30T12:01:25Z</time>
      </trkpt>
      <trkpt lat="68.155035926029086" lon="13.702329872176051">
        <ele>153.9140625</ele>
        <time>2014-06-30T12:01:36Z</time>
      </trkpt>
      <trkpt lat="68.154967026785016" lon="13.702245466411114">
        <ele>154.87890625</ele>
        <time>2014-06-30T12:01:49Z</time>
      </trkpt>
      <trkpt lat="68.154894942417741" lon="13.702274719253182">
        <ele>156.09765625</ele>
        <time>2014-06-30T12:02:00Z</time>
      </trkpt>
      <trkpt lat="68.154829228296876" lon="13.702374715358019">
        <ele>157.34375</ele>
        <time>2014-06-30T12:02:12Z</time>
      </trkpt>
      <trkpt lat="68.154757311567664" lon="13.702453253790736">
        <ele>158.65234375</ele>
        <time>2014-06-30T12:02:23Z</time>
      </trkpt>
      <trkpt lat="68.154682544991374" lon="13.702396173030138">
        <ele>159.76171875</ele>
        <time>2014-06-30T12:02:32Z</time>
      </trkpt>
      <trkpt lat="68.15458363853395" lon="13.702415786683559">
        <ele>161.3984375</ele>
        <time>2014-06-30T12:02:46Z</time>
      </trkpt>
      <trkpt lat="68.154517253860831" lon="13.702546209096909">
        <ele>162.6640625</ele>
        <time>2014-06-30T12:02:58Z</time>
      </trkpt>
      <trkpt lat="68.154498310759664" lon="13.702590633183718">
        <ele>163.05078125</ele>
        <time>2014-06-30T12:03:01Z</time>
      </trkpt>
      <trkpt lat="68.154398482292891" lon="13.702822895720601">
        <ele>165.1328125</ele>
        <time>2014-06-30T12:03:16Z</time>
      </trkpt>
      <trkpt lat="68.154389513656497" lon="13.702831026166677">
        <ele>165.29296875</ele>
        <time>2014-06-30T12:03:17Z</time>
      </trkpt>
      <trkpt lat="68.154266132041812" lon="13.702918449416757">
        <ele>167.453125</ele>
        <time>2014-06-30T12:03:31Z</time>
      </trkpt>
      <trkpt lat="68.154163286089897" lon="13.702951306477189">
        <ele>169.17578125</ele>
        <time>2014-06-30T12:03:43Z</time>
      </trkpt>
      <trkpt lat="68.154154317453504" lon="13.702954575419426">
        <ele>169.328125</ele>
        <time>2014-06-30T12:03:44Z</time>
      </trkpt>
      <trkpt lat="68.15410771407187" lon="13.702961867675185">
        <ele>170.09765625</ele>
        <time>2014-06-30T12:03:50Z</time>
      </trkpt>
      <trkpt lat="68.154005538672209" lon="13.703031269833446">
        <ele>171.8359375</ele>
        <time>2014-06-30T12:04:03Z</time>
      </trkpt>
      <trkpt lat="68.153876457363367" lon="13.703011823818088">
        <ele>173.66015625</ele>
        <time>2014-06-30T12:04:17Z</time>
      </trkpt>
      <trkpt lat="68.153814263641834" lon="13.703089943155646">
        <ele>174.6953125</ele>
        <time>2014-06-30T12:04:27Z</time>
      </trkpt>
      <trkpt lat="68.153721811249852" lon="13.703144090250134">
        <ele>176.125</ele>
        <time>2014-06-30T12:04:39Z</time>
      </trkpt>
      <trkpt lat="68.153637070208788" lon="13.703284151852131">
        <ele>177.59765625</ele>
        <time>2014-06-30T12:04:51Z</time>
      </trkpt>
      <trkpt lat="68.153587030246854" lon="13.703331425786018">
        <ele>178.40234375</ele>
        <time>2014-06-30T12:04:57Z</time>
      </trkpt>
      <trkpt lat="68.153525423258543" lon="13.703304855152965">
        <ele>179.24609375</ele>
        <time>2014-06-30T12:05:09Z</time>
      </trkpt>
      <trkpt lat="68.153452668339014" lon="13.703256575390697">
        <ele>180.16796875</ele>
        <time>2014-06-30T12:05:24Z</time>
      </trkpt>
      <trkpt lat="68.153397850692272" lon="13.70322790928185">
        <ele>180.80859375</ele>
        <time>2014-06-30T12:05:30Z</time>
      </trkpt>
      <trkpt lat="68.153369855135679" lon="13.703182060271502">
        <ele>181.078125</ele>
        <time>2014-06-30T12:05:33Z</time>
      </trkpt>
      <trkpt lat="68.153351079672575" lon="13.703169403597713">
        <ele>181.29296875</ele>
        <time>2014-06-30T12:05:35Z</time>
      </trkpt>
      <trkpt lat="68.15331319347024" lon="13.703145431354642">
        <ele>181.7265625</ele>
        <time>2014-06-30T12:05:39Z</time>
      </trkpt>
      <trkpt lat="68.153262315317988" lon="13.703153394162655">
        <ele>182.3828125</ele>
        <time>2014-06-30T12:05:45Z</time>
      </trkpt>
      <trkpt lat="68.153225183486938" lon="13.703180300071836">
        <ele>182.8984375</ele>
        <time>2014-06-30T12:05:50Z</time>
      </trkpt>
      <trkpt lat="68.153205150738358" lon="13.70320251211524">
        <ele>183.19140625</ele>
        <time>2014-06-30T12:05:53Z</time>
      </trkpt>
      <trkpt lat="68.153110519051552" lon="13.703384064137936">
        <ele>184.6328125</ele>
        <time>2014-06-30T12:06:07Z</time>
      </trkpt>
      <trkpt lat="68.153087720274925" lon="13.703426728025079">
        <ele>184.9375</ele>
        <time>2014-06-30T12:06:10Z</time>
      </trkpt>
      <trkpt lat="68.152973307296634" lon="13.703489676117897">
        <ele>186.3515625</ele>
        <time>2014-06-30T12:06:21Z</time>
      </trkpt>
      <trkpt lat="68.152952771633863" lon="13.703503338620067">
        <ele>186.59765625</ele>
        <time>2014-06-30T12:06:23Z</time>
      </trkpt>
      <trkpt lat="68.152922512963414" lon="13.703513564541936">
        <ele>186.9609375</ele>
        <time>2014-06-30T12:06:26Z</time>
      </trkpt>
      <trkpt lat="68.152874233201146" lon="13.703548600897193">
        <ele>187.6015625</ele>
        <time>2014-06-30T12:06:31Z</time>
      </trkpt>
      <trkpt lat="68.152856128290296" lon="13.703555138781667">
        <ele>187.84765625</ele>
        <time>2014-06-30T12:06:33Z</time>
      </trkpt>
      <trkpt lat="68.152801813557744" lon="13.703596293926239">
        <ele>188.58984375</ele>
        <time>2014-06-30T12:06:39Z</time>
      </trkpt>
      <trkpt lat="68.152785552665591" lon="13.703611129894853">
        <ele>188.81640625</ele>
        <time>2014-06-30T12:06:41Z</time>
      </trkpt>
      <trkpt lat="68.15270634368062" lon="13.703721351921558">
        <ele>189.96484375</ele>
        <time>2014-06-30T12:06:51Z</time>
      </trkpt>
      <trkpt lat="68.152604419738054" lon="13.70378689840436">
        <ele>191.44921875</ele>
        <time>2014-06-30T12:07:03Z</time>
      </trkpt>
      <trkpt lat="68.152587739750743" lon="13.703802404925227">
        <ele>191.703125</ele>
        <time>2014-06-30T12:07:05Z</time>
      </trkpt>
      <trkpt lat="68.152568377554417" lon="13.7037986330688">
        <ele>191.97265625</ele>
        <time>2014-06-30T12:07:07Z</time>
      </trkpt>
      <trkpt lat="68.152446253225207" lon="13.703830819576979">
        <ele>193.75390625</ele>
        <time>2014-06-30T12:07:20Z</time>
      </trkpt>
      <trkpt lat="68.152417335659266" lon="13.703882452100515">
        <ele>194.234375</ele>
        <time>2014-06-30T12:07:25Z</time>
      </trkpt>
      <trkpt lat="68.152363523840904" lon="13.703977838158607">
        <ele>195.01171875</ele>
        <time>2014-06-30T12:07:40Z</time>
      </trkpt>
      <trkpt lat="68.152253217995167" lon="13.704187888652086">
        <ele>196.7109375</ele>
        <time>2014-06-30T12:07:53Z</time>
      </trkpt>
      <trkpt lat="68.152188844978809" lon="13.704377235844731">
        <ele>197.8125</ele>
        <time>2014-06-30T12:08:05Z</time>
      </trkpt>
      <trkpt lat="68.152143750339746" lon="13.704465245828032">
        <ele>198.50390625</ele>
        <time>2014-06-30T12:08:12Z</time>
      </trkpt>
      <trkpt lat="68.152101673185825" lon="13.704508412629366">
        <ele>199.109375</ele>
        <time>2014-06-30T12:08:16Z</time>
      </trkpt>
      <trkpt lat="68.152094045653939" lon="13.704639924690127">
        <ele>198.99609375</ele>
        <time>2014-06-30T12:08:22Z</time>
      </trkpt>
      <trkpt lat="68.152041072025895" lon="13.704973272979259">
        <ele>199.25390625</ele>
        <time>2014-06-30T12:08:36Z</time>
      </trkpt>
      <trkpt lat="68.152030510827899" lon="13.705021971836686">
        <ele>199.3125</ele>
        <time>2014-06-30T12:08:38Z</time>
      </trkpt>
      <trkpt lat="68.152015255764127" lon="13.705225065350533">
        <ele>199.05859375</ele>
        <time>2014-06-30T12:08:46Z</time>
      </trkpt>
      <trkpt lat="68.151976363733411" lon="13.705370323732495">
        <ele>199.37890625</ele>
        <time>2014-06-30T12:08:56Z</time>
      </trkpt>
      <trkpt lat="68.151959264650941" lon="13.70535490103066">
        <ele>199.7109375</ele>
        <time>2014-06-30T12:09:00Z</time>
      </trkpt>
      <trkpt lat="68.151965048164129" lon="13.705359594896436">
        <ele>199.6015625</ele>
        <time>2014-06-30T12:09:03Z</time>
      </trkpt>
      <trkpt lat="68.15196898765862" lon="13.705358002334833">
        <ele>199.53515625</ele>
        <time>2014-06-30T12:09:04Z</time>
      </trkpt>
      <trkpt lat="68.151977453380823" lon="13.705325312912464">
        <ele>199.46484375</ele>
        <time>2014-06-30T12:09:40Z</time>
      </trkpt>
      <trkpt lat="68.151965467259288" lon="13.705348111689091">
        <ele>199.62109375</ele>
        <time>2014-06-30T12:09:46Z</time>
      </trkpt>
      <trkpt lat="68.151956833899021" lon="13.70542480610311">
        <ele>199.59375</ele>
        <time>2014-06-30T12:09:49Z</time>
      </trkpt>
      <trkpt lat="68.151914589107037" lon="13.705648435279727">
        <ele>199.5390625</ele>
        <time>2014-06-30T12:09:56Z</time>
      </trkpt>
      <trkpt lat="68.151906039565802" lon="13.705741222947836">
        <ele>199.21875</ele>
        <time>2014-06-30T12:09:59Z</time>
      </trkpt>
      <trkpt lat="68.151898328214884" lon="13.70587189681828">
        <ele>198.68359375</ele>
        <time>2014-06-30T12:10:04Z</time>
      </trkpt>
      <trkpt lat="68.151852730661631" lon="13.706025872379541">
        <ele>198.64453125</ele>
        <time>2014-06-30T12:10:10Z</time>
      </trkpt>
      <trkpt lat="68.151795649901032" lon="13.706245562061667">
        <ele>198.48046875</ele>
        <time>2014-06-30T12:10:19Z</time>
      </trkpt>
      <trkpt lat="68.151783915236592" lon="13.706313204020262">
        <ele>198.35546875</ele>
        <time>2014-06-30T12:10:22Z</time>
      </trkpt>
      <trkpt lat="68.151680482551455" lon="13.706511100754142">
        <ele>199.11328125</ele>
        <time>2014-06-30T12:10:38Z</time>
      </trkpt>
      <trkpt lat="68.151571685448289" lon="13.706664405763149">
        <ele>199.734375</ele>
        <time>2014-06-30T12:10:57Z</time>
      </trkpt>
      <trkpt lat="68.151425672695041" lon="13.706797175109386">
        <ele>201.14453125</ele>
        <time>2014-06-30T12:11:11Z</time>
      </trkpt>
      <trkpt lat="68.151397090405226" lon="13.707006135955453">
        <ele>200.1015625</ele>
        <time>2014-06-30T12:11:19Z</time>
      </trkpt>
      <trkpt lat="68.15138946287334" lon="13.707119207829237">
        <ele>199.41015625</ele>
        <time>2014-06-30T12:11:23Z</time>
      </trkpt>
      <trkpt lat="68.151385523378849" lon="13.707223059609532">
        <ele>198.734375</ele>
        <time>2014-06-30T12:11:27Z</time>
      </trkpt>
      <trkpt lat="68.151367250829935" lon="13.707480803132057">
        <ele>197.265625</ele>
        <time>2014-06-30T12:11:41Z</time>
      </trkpt>
      <trkpt lat="68.151366077363491" lon="13.707478623837233">
        <ele>197.30078125</ele>
        <time>2014-06-30T12:11:42Z</time>
      </trkpt>
      <trkpt lat="68.151333136484027" lon="13.707523383200169">
        <ele>197.4921875</ele>
        <time>2014-06-30T12:12:09Z</time>
      </trkpt>
      <trkpt lat="68.151344954967499" lon="13.707490609958768">
        <ele>197.5390625</ele>
        <time>2014-06-30T12:12:34Z</time>
      </trkpt>
      <trkpt lat="68.151350151747465" lon="13.707496896386147">
        <ele>197.41796875</ele>
        <time>2014-06-30T12:12:50Z</time>
      </trkpt>
      <trkpt lat="68.151354761794209" lon="13.707607788965106">
        <ele>196.5859375</ele>
        <time>2014-06-30T12:13:07Z</time>
      </trkpt>
      <trkpt lat="68.151353504508734" lon="13.707617009058595">
        <ele>196.5390625</ele>
        <time>2014-06-30T12:13:08Z</time>
      </trkpt>
      <trkpt lat="68.15133229829371" lon="13.707767967134714">
        <ele>195.8046875</ele>
        <time>2014-06-30T12:13:14Z</time>
      </trkpt>
      <trkpt lat="68.151318551972508" lon="13.707861173897982">
        <ele>195.33203125</ele>
        <time>2014-06-30T12:13:18Z</time>
      </trkpt>
      <trkpt lat="68.151275468990207" lon="13.708020849153399">
        <ele>194.80078125</ele>
        <time>2014-06-30T12:13:25Z</time>
      </trkpt>
      <trkpt lat="68.151236157864332" lon="13.708103829994798">
        <ele>194.73828125</ele>
        <time>2014-06-30T12:13:30Z</time>
      </trkpt>
      <trkpt lat="68.151135072112083" lon="13.708162419497967">
        <ele>195.58984375</ele>
        <time>2014-06-30T12:13:38Z</time>
      </trkpt>
      <trkpt lat="68.15105670131743" lon="13.708167281001806">
        <ele>196.54296875</ele>
        <time>2014-06-30T12:13:53Z</time>
      </trkpt>
      <trkpt lat="68.151007080450654" lon="13.708179602399468">
        <ele>197.08203125</ele>
        <time>2014-06-30T12:14:09Z</time>
      </trkpt>
      <trkpt lat="68.150917142629623" lon="13.708251351490617">
        <ele>197.69921875</ele>
        <time>2014-06-30T12:14:16Z</time>
      </trkpt>
      <trkpt lat="68.150722850114107" lon="13.708340367302299">
        <ele>199.59375</ele>
        <time>2014-06-30T12:14:32Z</time>
      </trkpt>
      <trkpt lat="68.150529814884067" lon="13.70828814804554">
        <ele>200.1328125</ele>
        <time>2014-06-30T12:14:48Z</time>
      </trkpt>
      <trkpt lat="68.150348849594593" lon="13.70815328322351">
        <ele>200.4296875</ele>
        <time>2014-06-30T12:15:03Z</time>
      </trkpt>
      <trkpt lat="68.150161765515804" lon="13.708095280453563">
        <ele>200.05078125</ele>
        <time>2014-06-30T12:15:18Z</time>
      </trkpt>
      <trkpt lat="68.149992534890771" lon="13.708051275461912">
        <ele>200.859375</ele>
        <time>2014-06-30T12:15:33Z</time>
      </trkpt>
      <trkpt lat="68.149992367252707" lon="13.70804138481617">
        <ele>200.828125</ele>
        <time>2014-06-30T12:15:44Z</time>
      </trkpt>
      <trkpt lat="68.149950122460723" lon="13.708035936579108">
        <ele>201.04296875</ele>
        <time>2014-06-30T12:15:48Z</time>
      </trkpt>
      <trkpt lat="68.14976379275322" lon="13.707900401204824">
        <ele>201.04296875</ele>
        <time>2014-06-30T12:16:05Z</time>
      </trkpt>
      <trkpt lat="68.149600513279438" lon="13.707649195566773">
        <ele>199.8125</ele>
        <time>2014-06-30T12:16:21Z</time>
      </trkpt>
      <trkpt lat="68.149423487484455" lon="13.707430427893996">
        <ele>199.76953125</ele>
        <time>2014-06-30T12:16:37Z</time>
      </trkpt>
      <trkpt lat="68.149382499977946" lon="13.707259017974138">
        <ele>199.2109375</ele>
        <time>2014-06-30T12:16:55Z</time>
      </trkpt>
      <trkpt lat="68.149389373138547" lon="13.707193722948432">
        <ele>198.98046875</ele>
        <time>2014-06-30T12:16:56Z</time>
      </trkpt>
      <trkpt lat="68.149403538554907" lon="13.707038657739758">
        <ele>198.703125</ele>
        <time>2014-06-30T12:17:03Z</time>
      </trkpt>
      <trkpt lat="68.149430528283119" lon="13.706698603928089">
        <ele>198.2265625</ele>
        <time>2014-06-30T12:17:18Z</time>
      </trkpt>
      <trkpt lat="68.149290718138218" lon="13.705580122768879">
        <ele>196.7265625</ele>
        <time>2014-06-30T12:17:34Z</time>
      </trkpt>
      <trkpt lat="68.148948485031724" lon="13.703269902616739">
        <ele>190.75</ele>
      </trkpt>
      <trkpt lat="68.148577334359288" lon="13.701181802898645">
        <ele>185.203125</ele>
      </trkpt>
      <trkpt lat="68.148564845323563" lon="13.700290136039257">
        <ele>186.05078125</ele>
      </trkpt>
      <trkpt lat="68.148388406261802" lon="13.699548169970512">
        <ele>183.859375</ele>
      </trkpt>
      <trkpt lat="68.148428471758962" lon="13.699147263541818">
        <ele>183.95703125</ele>
        <time>2014-06-30T12:17:49Z</time>
      </trkpt>
      <trkpt lat="68.148441631346941" lon="13.699101246893406">
        <ele>184.015625</ele>
        <time>2014-06-30T12:23:02Z</time>
      </trkpt>
      <trkpt lat="68.148344904184341" lon="13.697926523163915">
        <ele>184.625</ele>
        <time>2014-06-30T12:23:04Z</time>
      </trkpt>
      <trkpt lat="68.148170225322247" lon="13.697179025039077">
        <ele>183.4609375</ele>
        <time>2014-06-30T12:23:16Z</time>
      </trkpt>
      <trkpt lat="68.148181876167655" lon="13.696129526942968">
        <ele>183.23046875</ele>
      </trkpt>
      <trkpt lat="68.148472644388676" lon="13.694519279524684">
        <ele>183.24609375</ele>
      </trkpt>
      <trkpt lat="68.14868638291955" lon="13.693009112030268">
        <ele>181.98046875</ele>
        <time>2014-06-30T12:23:29Z</time>
      </trkpt>
      <trkpt lat="68.148667523637414" lon="13.692673500627279">
        <ele>181.01953125</ele>
        <time>2017-07-07T11:38:20Z</time>
      </trkpt>
      <trkpt lat="68.148059081286192" lon="13.691038945689797">
        <ele>173.83984375</ele>
        <time>2017-07-07T11:38:24Z</time>
      </trkpt>
      <trkpt lat="68.14705777913332" lon="13.690400496125221">
        <ele>169.32421875</ele>
        <time>2017-07-07T11:38:41Z</time>
      </trkpt>
      <trkpt lat="68.146588895469904" lon="13.689192244783044">
        <ele>163.94140625</ele>
        <time>2017-07-07T11:38:46Z</time>
      </trkpt>
      <trkpt lat="68.145557167008519" lon="13.68397107347846">
        <ele>141.45703125</ele>
        <time>2017-07-07T11:39:02Z</time>
      </trkpt>
      <trkpt lat="68.145595137029886" lon="13.683223659172654">
        <ele>139.69921875</ele>
        <time>2017-07-07T11:39:06Z</time>
      </trkpt>
      <trkpt lat="68.145427750423551" lon="13.682829290628433">
        <ele>137.765625</ele>
        <time>2017-07-07T11:39:15Z</time>
      </trkpt>
      <trkpt lat="68.145428169518709" lon="13.682773802429438">
        <ele>137.51953125</ele>
        <time>2017-07-07T11:39:17Z</time>
      </trkpt>
      <trkpt lat="68.145439988002181" lon="13.682659473270178">
        <ele>136.90625</ele>
        <time>2017-07-07T11:39:21Z</time>
      </trkpt>
      <trkpt lat="68.145437054336071" lon="13.682608511298895">
        <ele>136.57421875</ele>
        <time>2017-07-07T11:39:23Z</time>
      </trkpt>
      <trkpt lat="68.145354827865958" lon="13.682267451658845">
        <ele>133.13671875</ele>
        <time>2017-07-07T11:39:37Z</time>
      </trkpt>
      <trkpt lat="68.145247204229236" lon="13.68191784247756">
        <ele>129.828125</ele>
        <time>2017-07-07T11:39:51Z</time>
      </trkpt>
      <trkpt lat="68.145121894776821" lon="13.681474523618817">
        <ele>125.859375</ele>
        <time>2017-07-07T11:40:05Z</time>
      </trkpt>
      <trkpt lat="68.145030112937093" lon="13.681022906675935">
        <ele>123.21875</ele>
        <time>2017-07-07T11:40:19Z</time>
      </trkpt>
      <trkpt lat="68.14499088563025" lon="13.680783351883292">
        <ele>122.97265625</ele>
        <time>2017-07-07T11:40:27Z</time>
      </trkpt>
      <trkpt lat="68.144983174279332" lon="13.68071973323822">
        <ele>122.90625</ele>
        <time>2017-07-07T11:40:39Z</time>
      </trkpt>
      <trkpt lat="68.144982755184174" lon="13.680696347728372">
        <ele>122.90625</ele>
        <time>2017-07-07T11:40:41Z</time>
      </trkpt>
      <trkpt lat="68.144859373569489" lon="13.680214136838913">
        <ele>121.61328125</ele>
        <time>2017-07-07T11:40:57Z</time>
      </trkpt>
      <trkpt lat="68.144716965034604" lon="13.679716419428587">
        <ele>115.12890625</ele>
        <time>2017-07-07T11:41:14Z</time>
      </trkpt>
      <trkpt lat="68.144593331962824" lon="13.679234627634287">
        <ele>109.0546875</ele>
        <time>2017-07-07T11:41:29Z</time>
      </trkpt>
      <trkpt lat="68.144461316987872" lon="13.678799774497747">
        <ele>108.73828125</ele>
        <time>2017-07-07T11:41:44Z</time>
      </trkpt>
      <trkpt lat="68.144319746643305" lon="13.678481429815292">
        <ele>107.453125</ele>
        <time>2017-07-07T11:41:57Z</time>
      </trkpt>
      <trkpt lat="68.144241543486714" lon="13.678384954109788">
        <ele>106.42578125</ele>
        <time>2017-07-07T11:42:03Z</time>
      </trkpt>
      <trkpt lat="68.14420030452311" lon="13.678245227783918">
        <ele>105.3515625</ele>
        <time>2017-07-07T11:42:09Z</time>
      </trkpt>
      <trkpt lat="68.144185049459338" lon="13.678222764283419">
        <ele>105.0703125</ele>
        <time>2017-07-07T11:42:11Z</time>
      </trkpt>
      <trkpt lat="68.144151102751493" lon="13.678141124546528">
        <ele>104.28125</ele>
        <time>2017-07-07T11:42:15Z</time>
      </trkpt>
      <trkpt lat="68.144063092768192" lon="13.67788664996624">
        <ele>101.921875</ele>
        <time>2017-07-07T11:42:28Z</time>
      </trkpt>
      <trkpt lat="68.1440903339535" lon="13.67779528722167">
        <ele>101.78125</ele>
        <time>2017-07-07T11:42:42Z</time>
      </trkpt>
      <trkpt lat="68.144119922071695" lon="13.677803836762905">
        <ele>102.1953125</ele>
        <time>2017-07-07T11:42:53Z</time>
      </trkpt>
      <trkpt lat="68.144118245691061" lon="13.677804674953222">
        <ele>102.1796875</ele>
        <time>2017-07-07T11:42:54Z</time>
      </trkpt>
      <trkpt lat="68.144117658957839" lon="13.677838873118162">
        <ele>102.34765625</ele>
        <time>2017-07-07T11:42:55Z</time>
      </trkpt>
      <trkpt lat="68.144115814939141" lon="13.677857145667076">
        <ele>102.41796875</ele>
        <time>2017-07-07T11:42:56Z</time>
      </trkpt>
      <trkpt lat="68.144113048911095" lon="13.677851529791951">
        <ele>102.35546875</ele>
        <time>2017-07-07T11:43:15Z</time>
      </trkpt>
      <trkpt lat="68.144098799675703" lon="13.677858067676425">
        <ele>102.2109375</ele>
        <time>2017-07-07T11:43:58Z</time>
      </trkpt>
      <trkpt lat="68.144100308418274" lon="13.677868293598294">
        <ele>102.28515625</ele>
        <time>2017-07-07T11:44:32Z</time>
      </trkpt>
      <trkpt lat="68.144089998677373" lon="13.677868377417326">
        <ele>102.15625</ele>
        <time>2017-07-07T11:45:05Z</time>
      </trkpt>
      <trkpt lat="68.14409863203764" lon="13.677841471508145">
        <ele>102.125</ele>
        <time>2017-07-07T11:45:46Z</time>
      </trkpt>
      <trkpt lat="68.144089411944151" lon="13.677849350497127">
        <ele>102.05078125</ele>
        <time>2017-07-07T11:46:30Z</time>
      </trkpt>
      <trkpt lat="68.144095949828625" lon="13.677858067676425">
        <ele>102.17578125</ele>
        <time>2017-07-07T11:47:08Z</time>
      </trkpt>
      <trkpt lat="68.144103493541479" lon="13.67785882204771">
        <ele>102.2734375</ele>
        <time>2017-07-07T11:47:53Z</time>
      </trkpt>
      <trkpt lat="68.144115395843983" lon="13.677851110696793">
        <ele>102.3828125</ele>
        <time>2017-07-07T11:48:11Z</time>
      </trkpt>
      <trkpt lat="68.144116401672363" lon="13.677886063233018">
        <ele>102.57421875</ele>
        <time>2017-07-07T11:48:17Z</time>
      </trkpt>
      <trkpt lat="68.144058817997575" lon="13.67785002104938">
        <ele>101.67578125</ele>
        <time>2017-07-07T11:48:23Z</time>
      </trkpt>
      <trkpt lat="68.144046161323786" lon="13.677832167595625">
        <ele>101.421875</ele>
        <time>2017-07-07T11:48:24Z</time>
      </trkpt>
      <trkpt lat="68.14403417520225" lon="13.677813224494457">
        <ele>101.234375</ele>
        <time>2017-07-07T11:48:25Z</time>
      </trkpt>
      <trkpt lat="68.144022943452001" lon="13.677790006622672">
        <ele>101.3515625</ele>
        <time>2017-07-07T11:48:26Z</time>
      </trkpt>
      <trkpt lat="68.144013974815607" lon="13.677766285836697">
        <ele>101.4296875</ele>
        <time>2017-07-07T11:48:27Z</time>
      </trkpt>
      <trkpt lat="68.144003162160516" lon="13.677737368270755">
        <ele>101.54296875</ele>
        <time>2017-07-07T11:48:28Z</time>
      </trkpt>
      <trkpt lat="68.143991092219949" lon="13.677714318037033">
        <ele>101.6953125</ele>
        <time>2017-07-07T11:48:29Z</time>
      </trkpt>
      <trkpt lat="68.143977932631969" lon="13.67769118398428">
        <ele>101.86328125</ele>
        <time>2017-07-07T11:48:30Z</time>
      </trkpt>
      <trkpt lat="68.143965946510434" lon="13.677668888121843">
        <ele>102</ele>
        <time>2017-07-07T11:48:31Z</time>
      </trkpt>
      <trkpt lat="68.143957899883389" lon="13.6776486877352">
        <ele>102.05859375</ele>
        <time>2017-07-07T11:48:32Z</time>
      </trkpt>
      <trkpt lat="68.143952032551169" lon="13.677621781826019">
        <ele>102.04296875</ele>
        <time>2017-07-07T11:48:33Z</time>
      </trkpt>
      <trkpt lat="68.14394666813314" lon="13.677588002756238">
        <ele>101.97265625</ele>
        <time>2017-07-07T11:48:34Z</time>
      </trkpt>
      <trkpt lat="68.143828650936484" lon="13.677035048604012">
        <ele>101.0234375</ele>
        <time>2017-07-07T11:48:51Z</time>
      </trkpt>
      <trkpt lat="68.143740808591247" lon="13.676468096673489">
        <ele>99.89453125</ele>
        <time>2017-07-07T11:49:07Z</time>
      </trkpt>
      <trkpt lat="68.143663443624973" lon="13.67595411837101">
        <ele>97.91015625</ele>
        <time>2017-07-07T11:49:22Z</time>
      </trkpt>
      <trkpt lat="68.1435636151582" lon="13.675360763445497">
        <ele>94</ele>
        <time>2017-07-07T11:49:39Z</time>
      </trkpt>
      <trkpt lat="68.143471162766218" lon="13.674888359382749">
        <ele>88.84765625</ele>
        <time>2017-07-07T11:49:53Z</time>
      </trkpt>
      <trkpt lat="68.143351804465055" lon="13.674487452954054">
        <ele>85.375</ele>
        <time>2017-07-07T11:50:07Z</time>
      </trkpt>
      <trkpt lat="68.143228674307466" lon="13.674127701669931">
        <ele>83.94140625</ele>
        <time>2017-07-07T11:50:20Z</time>
      </trkpt>
      <trkpt lat="68.14313605427742" lon="13.673801394179463">
        <ele>82.0390625</ele>
        <time>2017-07-07T11:50:31Z</time>
      </trkpt>
      <trkpt lat="68.143037566915154" lon="13.673491599038243">
        <ele>80.05078125</ele>
        <time>2017-07-07T11:50:42Z</time>
      </trkpt>
      <trkpt lat="68.142933044582605" lon="13.67321047000587">
        <ele>77.2109375</ele>
        <time>2017-07-07T11:50:57Z</time>
      </trkpt>
      <trkpt lat="68.142905216664076" lon="13.673056242987514">
        <ele>76.078125</ele>
        <time>2017-07-07T11:51:07Z</time>
      </trkpt>
      <trkpt lat="68.142794407904148" lon="13.672743681818247">
        <ele>74.19140625</ele>
        <time>2017-07-07T11:51:19Z</time>
      </trkpt>
      <trkpt lat="68.142656106501818" lon="13.672445956617594">
        <ele>72.26953125</ele>
        <time>2017-07-07T11:51:32Z</time>
      </trkpt>
      <trkpt lat="68.142646886408329" lon="13.672420894727111">
        <ele>72.08984375</ele>
        <time>2017-07-07T11:51:33Z</time>
      </trkpt>
      <trkpt lat="68.142635738477111" lon="13.672400526702404">
        <ele>71.94921875</ele>
        <time>2017-07-07T11:51:34Z</time>
      </trkpt>
      <trkpt lat="68.142622914165258" lon="13.672382170334458">
        <ele>71.828125</ele>
        <time>2017-07-07T11:51:35Z</time>
      </trkpt>
      <trkpt lat="68.142610508948565" lon="13.672359455376863">
        <ele>71.671875</ele>
        <time>2017-07-07T11:51:36Z</time>
      </trkpt>
      <trkpt lat="68.1426000315696" lon="13.672338500618935">
        <ele>71.5234375</ele>
        <time>2017-07-07T11:51:37Z</time>
      </trkpt>
      <trkpt lat="68.14246173016727" lon="13.671941366046667">
        <ele>67.9375</ele>
        <time>2017-07-07T11:51:53Z</time>
      </trkpt>
      <trkpt lat="68.142451588064432" lon="13.671972630545497">
        <ele>68.2578125</ele>
        <time>2017-07-07T11:52:04Z</time>
      </trkpt>
      <trkpt lat="68.142401967197657" lon="13.671845393255353">
        <ele>66.91796875</ele>
        <time>2017-07-07T11:52:16Z</time>
      </trkpt>
      <trkpt lat="68.142398279160261" lon="13.671842878684402">
        <ele>66.88671875</ele>
        <time>2017-07-07T11:52:29Z</time>
      </trkpt>
      <trkpt lat="68.142426693812013" lon="13.671869030222297">
        <ele>67.1796875</ele>
        <time>2017-07-07T11:52:48Z</time>
      </trkpt>
      <trkpt lat="68.142415713518858" lon="13.671839609742165">
        <ele>66.86328125</ele>
        <time>2017-07-07T11:53:04Z</time>
      </trkpt>
      <trkpt lat="68.142418898642063" lon="13.671851009130478">
        <ele>66.98828125</ele>
        <time>2017-07-07T11:53:18Z</time>
      </trkpt>
      <trkpt lat="68.142429627478123" lon="13.671917477622628">
        <ele>67.6875</ele>
        <time>2017-07-07T11:53:36Z</time>
      </trkpt>
      <trkpt lat="68.142478745430708" lon="13.671903312206268">
        <ele>67.5546875</ele>
        <time>2017-07-07T11:53:51Z</time>
      </trkpt>
      <trkpt lat="68.142491150647402" lon="13.671907838433981">
        <ele>67.6015625</ele>
        <time>2017-07-07T11:53:52Z</time>
      </trkpt>
      <trkpt lat="68.142504561692476" lon="13.671890068799257">
        <ele>67.4296875</ele>
        <time>2017-07-07T11:53:53Z</time>
      </trkpt>
      <trkpt lat="68.142488049343228" lon="13.671847572550178">
        <ele>66.99609375</ele>
        <time>2017-07-07T11:54:07Z</time>
      </trkpt>
      <trkpt lat="68.142483355477452" lon="13.671809351071715">
        <ele>66.609375</ele>
        <time>2017-07-07T11:54:13Z</time>
      </trkpt>
      <trkpt lat="68.142469441518188" lon="13.671777583658695">
        <ele>66.2734375</ele>
        <time>2017-07-07T11:54:14Z</time>
      </trkpt>
      <trkpt lat="68.142446810379624" lon="13.671743972226977">
        <ele>65.90234375</ele>
        <time>2017-07-07T11:54:15Z</time>
      </trkpt>
      <trkpt lat="68.142198957502842" lon="13.671197136864066">
        <ele>62.39453125</ele>
        <time>2017-07-07T11:54:25Z</time>
      </trkpt>
      <trkpt lat="68.141989158466458" lon="13.670648541301489">
        <ele>58.69921875</ele>
        <time>2017-07-07T11:54:31Z</time>
      </trkpt>
      <trkpt lat="68.14181674271822" lon="13.670223159715533">
        <ele>56.18359375</ele>
        <time>2017-07-07T11:54:35Z</time>
      </trkpt>
      <trkpt lat="68.141606608405709" lon="13.669705325737596">
        <ele>53.0078125</ele>
        <time>2017-07-07T11:54:40Z</time>
      </trkpt>
      <trkpt lat="68.141386415809393" lon="13.669190593063831">
        <ele>49.47265625</ele>
        <time>2017-07-07T11:54:45Z</time>
      </trkpt>
      <trkpt lat="68.141153734177351" lon="13.668659767135978">
        <ele>46.265625</ele>
        <time>2017-07-07T11:54:50Z</time>
      </trkpt>
      <trkpt lat="68.140782415866852" lon="13.667744547128677">
        <ele>41.87109375</ele>
        <time>2017-07-07T11:54:57Z</time>
      </trkpt>
      <trkpt lat="68.140393830835819" lon="13.666648445650935">
        <ele>39.95703125</ele>
        <time>2017-07-07T11:55:05Z</time>
      </trkpt>
      <trkpt lat="68.140362398698926" lon="13.666504947468638">
        <ele>39.69921875</ele>
        <time>2017-07-07T11:55:06Z</time>
      </trkpt>
      <trkpt lat="68.140343371778727" lon="13.666349882259965">
        <ele>39.41796875</ele>
        <time>2017-07-07T11:55:07Z</time>
      </trkpt>
      <trkpt lat="68.140340186655521" lon="13.66619230248034">
        <ele>39.1328125</ele>
        <time>2017-07-07T11:55:08Z</time>
      </trkpt>
      <trkpt lat="68.140350831672549" lon="13.666036399081349">
        <ele>39</ele>
        <time>2017-07-07T11:55:09Z</time>
      </trkpt>
      <trkpt lat="68.140369188040495" lon="13.665877310559154">
        <ele>39</ele>
        <time>2017-07-07T11:55:10Z</time>
      </trkpt>
      <trkpt lat="68.140389053151011" lon="13.665712857618928">
        <ele>39</ele>
        <time>2017-07-07T11:55:11Z</time>
      </trkpt>
      <trkpt lat="68.140562139451504" lon="13.664346691220999">
        <ele>38.7421875</ele>
        <time>2017-07-07T11:55:20Z</time>
      </trkpt>
      <trkpt lat="68.140568090602756" lon="13.664214424788952">
        <ele>38.75390625</ele>
        <time>2017-07-07T11:55:21Z</time>
      </trkpt>
      <trkpt lat="68.140564654022455" lon="13.66407360881567">
        <ele>38.74609375</ele>
        <time>2017-07-07T11:55:22Z</time>
      </trkpt>
      <trkpt lat="68.140549818053842" lon="13.663922399282455">
        <ele>38.72265625</ele>
        <time>2017-07-07T11:55:23Z</time>
      </trkpt>
      <trkpt lat="68.140519140288234" lon="13.663762891665101">
        <ele>38.828125</ele>
        <time>2017-07-07T11:55:24Z</time>
      </trkpt>
      <trkpt lat="68.140477398410439" lon="13.663594331592321">
        <ele>38.9140625</ele>
        <time>2017-07-07T11:55:25Z</time>
      </trkpt>
      <trkpt lat="68.140061823651195" lon="13.661924405023456">
        <ele>37.21875</ele>
        <time>2017-07-07T11:55:34Z</time>
      </trkpt>
      <trkpt lat="68.139289263635874" lon="13.659760113805532">
        <ele>32.09765625</ele>
        <time>2017-07-07T11:55:48Z</time>
      </trkpt>
      <trkpt lat="68.138882154598832" lon="13.658805415034294">
        <ele>30.94140625</ele>
        <time>2017-07-07T11:55:57Z</time>
      </trkpt>
      <trkpt lat="68.138851644471288" lon="13.658634927123785">
        <ele>30.3828125</ele>
        <time>2017-07-07T11:55:59Z</time>
      </trkpt>
      <trkpt lat="68.138847704976797" lon="13.658512886613607">
        <ele>29.94921875</ele>
        <time>2017-07-07T11:56:00Z</time>
      </trkpt>
      <trkpt lat="68.138853823766112" lon="13.658369472250342">
        <ele>29.421875</ele>
        <time>2017-07-07T11:56:01Z</time>
      </trkpt>
      <trkpt lat="68.138933032751083" lon="13.656197050586343">
        <ele>24.1328125</ele>
        <time>2017-07-07T11:56:11Z</time>
      </trkpt>
      <trkpt lat="68.138870587572455" lon="13.654902717098594">
        <ele>20.859375</ele>
        <time>2017-07-07T11:56:16Z</time>
      </trkpt>
      <trkpt lat="68.138765227049589" lon="13.653118796646595">
        <ele>20</ele>
        <time>2017-07-07T11:56:23Z</time>
      </trkpt>
      <trkpt lat="68.138857092708349" lon="13.651477536186576">
        <ele>20</ele>
        <time>2017-07-07T11:56:30Z</time>
      </trkpt>
      <trkpt lat="68.138915933668613" lon="13.651001611724496">
        <ele>20</ele>
        <time>2017-07-07T11:56:33Z</time>
      </trkpt>
      <trkpt lat="68.138967985287309" lon="13.650811426341534">
        <ele>20</ele>
        <time>2017-07-07T11:56:37Z</time>
      </trkpt>
      <trkpt lat="68.139009643346071" lon="13.650802541524172">
        <ele>20</ele>
        <time>2017-07-07T11:56:38Z</time>
      </trkpt>
      <trkpt lat="68.139617079868913" lon="13.650886444374919">
        <ele>19.9765625</ele>
        <time>2017-07-07T11:56:45Z</time>
      </trkpt>
      <trkpt lat="68.141233362257481" lon="13.650847133249044">
        <ele>16.14453125</ele>
        <time>2017-07-07T11:56:58Z</time>
      </trkpt>
      <trkpt lat="68.143792944028974" lon="13.650768008083105">
        <ele>7.3125</ele>
        <time>2017-07-07T11:57:17Z</time>
      </trkpt>
      <trkpt lat="68.144762981683016" lon="13.650683015584946">
        <ele>8.6171875</ele>
        <time>2017-07-07T11:57:26Z</time>
      </trkpt>
      <trkpt lat="68.145062131807208" lon="13.650603387504816">
        <ele>9.6953125</ele>
        <time>2017-07-07T11:57:33Z</time>
      </trkpt>
      <trkpt lat="68.145083002746105" lon="13.650589641183615">
        <ele>9.7734375</ele>
        <time>2017-07-07T11:57:38Z</time>
      </trkpt>
      <trkpt lat="68.145097168162465" lon="13.650541277602315">
        <ele>9.81640625</ele>
        <time>2017-07-07T11:57:39Z</time>
      </trkpt>
      <trkpt lat="68.145109992474318" lon="13.650451088324189">
        <ele>9.85546875</ele>
        <time>2017-07-07T11:57:40Z</time>
      </trkpt>
      <trkpt lat="68.145110411569476" lon="13.65031136199832">
        <ele>9.83984375</ele>
        <time>2017-07-07T11:57:41Z</time>
      </trkpt>
      <trkpt lat="68.145096832886338" lon="13.650173731148243">
        <ele>9.7578125</ele>
        <time>2017-07-07T11:57:42Z</time>
      </trkpt>
      <trkpt lat="68.145074788480997" lon="13.650004919618368">
        <ele>9.609375</ele>
        <time>2017-07-07T11:57:43Z</time>
      </trkpt>
      <trkpt lat="68.144765244796872" lon="13.648308087140322">
        <ele>8.27734375</ele>
        <time>2017-07-07T11:57:50Z</time>
      </trkpt>
      <trkpt lat="68.144156383350492" lon="13.645268138498068">
        <ele>0.96484375</ele>
        <time>2017-07-07T11:58:01Z</time>
      </trkpt>
      <trkpt lat="68.144076839089394" lon="13.641757210716605">
        <ele>0</ele>
        <time>2017-07-07T11:58:11Z</time>
      </trkpt>
      <trkpt lat="68.144037025049329" lon="13.632765272632241">
        <ele>0.1484375</ele>
        <time>2017-07-07T11:58:35Z</time>
      </trkpt>
      <trkpt lat="68.143940297886729" lon="13.630615649744868">
        <ele>6.1953125</ele>
        <time>2017-07-07T11:58:41Z</time>
      </trkpt>
      <trkpt lat="68.143920013681054" lon="13.630276098847389">
        <ele>7.2734375</ele>
        <time>2017-07-07T11:58:42Z</time>
      </trkpt>
      <trkpt lat="68.143843822181225" lon="13.627602690830827">
        <ele>10.375</ele>
        <time>2017-07-07T11:58:50Z</time>
      </trkpt>
      <trkpt lat="68.143868967890739" lon="13.627275293692946">
        <ele>10.125</ele>
        <time>2017-07-07T11:58:51Z</time>
      </trkpt>
      <trkpt lat="68.143906686455011" lon="13.626954769715667">
        <ele>9.765625</ele>
        <time>2017-07-07T11:58:52Z</time>
      </trkpt>
      <trkpt lat="68.143954379484057" lon="13.626644974574447">
        <ele>9.55859375</ele>
        <time>2017-07-07T11:58:53Z</time>
      </trkpt>
      <trkpt lat="68.144009113311768" lon="13.626349931582808">
        <ele>9.85546875</ele>
        <time>2017-07-07T11:58:54Z</time>
      </trkpt>
      <trkpt lat="68.144070552662015" lon="13.626079112291336">
        <ele>10.12890625</ele>
        <time>2017-07-07T11:58:55Z</time>
      </trkpt>
      <trkpt lat="68.14413333311677" lon="13.625820614397526">
        <ele>10.01953125</ele>
        <time>2017-07-07T11:58:56Z</time>
      </trkpt>
      <trkpt lat="68.144918633624911" lon="13.622506577521563">
        <ele>10.1796875</ele>
        <time>2017-07-07T11:59:11Z</time>
      </trkpt>
      <trkpt lat="68.145044110715389" lon="13.621968626976013">
        <ele>10.6328125</ele>
        <time>2017-07-07T11:59:17Z</time>
      </trkpt>
      <trkpt lat="68.145046457648277" lon="13.621744578704238">
        <ele>10.640625</ele>
        <time>2017-07-07T11:59:20Z</time>
      </trkpt>
      <trkpt lat="68.144741607829928" lon="13.621403519064188">
        <ele>9.54296875</ele>
        <time>2017-07-07T11:59:26Z</time>
      </trkpt>
      <trkpt lat="68.144505573436618" lon="13.62111534923315">
        <ele>8.69140625</ele>
        <time>2017-07-07T11:59:32Z</time>
      </trkpt>
      <trkpt lat="68.144601378589869" lon="13.620753921568394">
        <ele>9.03515625</ele>
        <time>2017-07-07T11:59:42Z</time>
      </trkpt>
      <trkpt lat="68.144730543717742" lon="13.620845032855868">
        <ele>9.50390625</ele>
        <time>2017-07-07T11:59:46Z</time>
      </trkpt>
      <trkpt lat="68.144735489040613" lon="13.621075283735991">
        <ele>9.51953125</ele>
        <time>2017-07-07T11:59:55Z</time>
      </trkpt>
      <trkpt lat="68.144728112965822" lon="13.621054161339998">
        <ele>9.4921875</ele>
        <time>2017-07-07T12:00:26Z</time>
      </trkpt>
      <trkpt lat="68.144712774083018" lon="13.621035134419799">
        <ele>9.4375</ele>
        <time>2017-07-07T12:00:45Z</time>
      </trkpt>
    </trkseg>
  </trk>

</gpx>
